businessname,legalowner,namelast,namefirst,licenseno,issdttm,expdttm,licstatus,licensecat,descript,result,resultdttm,violdesc,violstatus,comments,address,city,state,zip
AK'S TAKEOUT,Robert Dunkle,309 D Street Inc,Jasbir Saini,430834,2020-07-15T10:59:03Z,2021-12-31T23:59:00Z,Active,FT,Eating & Drinking w/ Take Out,HE_Filed,2021-03-26T14:23:30Z,Packaged and Unpackaged Food-Separation  Packaging  and Segregation  (C),Fail,Ensure all foods are elevated off the floors including the walk-in units during storage as discussed                                                                               ensure segragation of raw foods and ready to eat foods are being done at the sandwich unit to reduce potential cross contamination  being stored a little to close to each other at the moment  corrected during the inspection,309   D ST,South Boston,MA,2127
AK'S TAKEOUT,Robert Dunkle,309 D Street Inc,Jasbir Saini,430834,2020-07-15T10:59:03Z,2021-12-31T23:59:00Z,Active,FT,Eating & Drinking w/ Take Out,HE_Filed,2021-03-26T14:23:30Z,Food Labels (C),Fail,Clearly label to properly identify all bulk food containers as well as all plastic spray bottles scattered throughout the kitchen                                  Ensure all foods out for retail sale have an ingredient label for the pastries out in the open self service refrigerated unit by the front counter,309   D ST,South Boston,MA,2127
AK'S TAKEOUT,Robert Dunkle,309 D Street Inc,Jasbir Saini,430834,2020-07-15T10:59:03Z,2021-12-31T23:59:00Z,Active,FT,Eating & Drinking w/ Take Out,HE_Filed,2021-03-26T14:23:30Z,Floors  Walls and Ceilings-Cleanability (C),Fail,Clean walls behind all cooking equipment on the cooking line from all visible food soills  stains and soils,309   D ST,South Boston,MA,2127
ALFREDO'S ITALIAN KITCHEN,,Adel Hamad,,23175,2012-01-23T14:31:38Z,2021-12-31T23:59:00Z,Active,FT,Eating & Drinking w/ Take Out,HE_Pass,2021-02-05T10:43:34Z,Nonfood Contact Surfaces (C),Pass,Exterior of prep table drawers with visible soils / Clean to remove.  Exterior of stand up reach ins with visible soils / Clean to remove.,243   Dorchester ST,South Boston,MA,2127
ALFREDO'S ITALIAN KITCHEN,,Adel Hamad,,23175,2012-01-23T14:31:38Z,2021-12-31T23:59:00Z,Active,FT,Eating & Drinking w/ Take Out,HE_Pass,2021-02-05T10:43:34Z,Walls and Ceilings  Attachments (C),Pass,Hood tag expired in December 2020 / Contact hood cleaning company ASAP,243   Dorchester ST,South Boston,MA,2127
ALFREDO'S ITALIAN KITCHEN,,Adel Hamad,,23175,2012-01-23T14:31:38Z,2021-12-31T23:59:00Z,Active,FT,Eating & Drinking w/ Take Out,HE_Pass,2021-02-05T10:43:34Z,,Pass,8-304.11 (A) Post the current permit in a location of the establishment that is conspicuous to the consumer.,243   Dorchester ST,South Boston,MA,2127
AMRHEIN'S,Mulrey Joseph,Mulrey,Joseph,18844,2011-12-30T13:15:20Z,2021-12-31T23:59:00Z,Active,FS,Eating & Drinking,HE_Pass,2021-04-02T12:48:30Z,Packaged and Unpackaged Food-Separation  Packaging  and Segregation  (C),Pass,Cover all exposed foods in the refrigeration / freezer units during extended periods of storage to ensure integrity and quality of the unwrapped food,80 W BROADWAY,SOUTH BOSTON,MA,2127
AMRHEIN'S,Mulrey Joseph,Mulrey,Joseph,18844,2011-12-30T13:15:20Z,2021-12-31T23:59:00Z,Active,FS,Eating & Drinking,HE_Pass,2021-04-02T12:48:30Z,In-Use Utensils  Between-Use Storage (C),Pass,Ensure all ice scoops have a handle and if stored in ice do not store too deep so that the handle is in the ice,80 W BROADWAY,SOUTH BOSTON,MA,2127
AMRHEIN'S,Mulrey Joseph,Mulrey,Joseph,18844,2011-12-30T13:15:20Z,2021-12-31T23:59:00Z,Active,FS,Eating & Drinking,HE_Pass,2021-04-02T12:48:30Z,Nonfood-Contact Surfaces (C),Pass,Clean inside and outside of all equipment on the cooking line from visible food spills  stains and soils - clean under toasters and waffle irons,80 W BROADWAY,SOUTH BOSTON,MA,2127
AMRHEIN'S,Mulrey Joseph,Mulrey,Joseph,18844,2011-12-30T13:15:20Z,2021-12-31T23:59:00Z,Active,FS,Eating & Drinking,HE_Pass,2021-04-02T12:48:30Z,Service Sink (C),Pass,Enclose exposed areas as discussed,80 W BROADWAY,SOUTH BOSTON,MA,2127
AMRHEIN'S,Mulrey Joseph,Mulrey,Joseph,18844,2011-12-30T13:15:20Z,2021-12-31T23:59:00Z,Active,FS,Eating & Drinking,HE_Pass,2021-04-02T12:48:30Z,Area  Enclosures and Receptacles  Good Repair (C),Pass,Address issues concerning the rear entrance as discussed,80 W BROADWAY,SOUTH BOSTON,MA,2127
AMRHEIN'S,Mulrey Joseph,Mulrey,Joseph,18844,2011-12-30T13:15:20Z,2021-12-31T23:59:00Z,Active,FS,Eating & Drinking,HE_Pass,2021-04-02T12:48:30Z,Outside Receptacles (C),Pass,Clean as discussed,80 W BROADWAY,SOUTH BOSTON,MA,2127
AMRHEIN'S,Mulrey Joseph,Mulrey,Joseph,18844,2011-12-30T13:15:20Z,2021-12-31T23:59:00Z,Active,FS,Eating & Drinking,HE_Pass,2021-04-02T12:48:30Z,Floors  Walls and Ceilings-Cleanability (C),Pass,Clean kitchen floor  walls and ceiling from all visible food spills  stains and soils as discussed,80 W BROADWAY,SOUTH BOSTON,MA,2127
AMRHEIN'S,Mulrey Joseph,Mulrey,Joseph,18844,2011-12-30T13:15:20Z,2021-12-31T23:59:00Z,Active,FS,Eating & Drinking,HE_Pass,2021-04-02T12:48:30Z,Wall and Ceiling Coverings and Coatings (C),Pass,Missing light covers above the ice machine and prep station in the kitchen  replace,80 W BROADWAY,SOUTH BOSTON,MA,2127
AMRHEIN'S,Mulrey Joseph,Mulrey,Joseph,18844,2011-12-30T13:15:20Z,2021-12-31T23:59:00Z,Active,FS,Eating & Drinking,HE_Pass,2021-04-02T12:48:30Z,Walls and Ceilings  Attachments (C),Pass,Replace missing door sweep on the rear kitchen door leading into the kitchen,80 W BROADWAY,SOUTH BOSTON,MA,2127
AMRHEIN'S,Mulrey Joseph,Mulrey,Joseph,18844,2011-12-30T13:15:20Z,2021-12-31T23:59:00Z,Active,FS,Eating & Drinking,HE_Pass,2021-04-02T12:48:30Z,Maintaining Premises  Unnecessary Items and Litter (C),Pass,Remove any broken equipment  tables and rusted pieces of old equipment collecting outside by the kitchen swing door,80 W BROADWAY,SOUTH BOSTON,MA,2127
ANDREW SQUARE HOUSE OF PIZZA,Manias Nicholas,Kadilliu,Marenglen,377074,2019-01-03T09:34:00Z,2021-12-31T23:59:00Z,Active,FT,Eating & Drinking w/ Take Out,HE_Filed,2021-03-09T15:38:30Z,Packaged and Unpackaged Food-Separation  Packaging  and Segregation  (C),Fail,Ensure all foods are elevated off the ground / floor a minimum of six inches during storage including the basement.,395  Dorchester ST,South Boston,MA,2127
ANDREW SQUARE HOUSE OF PIZZA,Manias Nicholas,Kadilliu,Marenglen,377074,2019-01-03T09:34:00Z,2021-12-31T23:59:00Z,Active,FT,Eating & Drinking w/ Take Out,HE_Filed,2021-03-09T15:38:30Z,Wiping Cloths  Use Limitation (C),Fail,Set up as discussed. One for raw foods and a seperate sanitizing bucket with wiping cloths for ready to eat foods,395  Dorchester ST,South Boston,MA,2127
ANDREW SQUARE HOUSE OF PIZZA,Manias Nicholas,Kadilliu,Marenglen,377074,2019-01-03T09:34:00Z,2021-12-31T23:59:00Z,Active,FT,Eating & Drinking w/ Take Out,HE_Filed,2021-03-09T15:38:30Z,Handwashing Signage  (C),Fail,"Clearly and properly identify all hand sinks in the facility with signs strating "" HAND WASHING ONLY """,395  Dorchester ST,South Boston,MA,2127
BOSTON BAGEL COMPANY,,Totoni,Klaudjon,353202,2018-01-05T15:51:11Z,2021-12-31T23:59:00Z,Active,FS,Eating & Drinking,HE_Pass,2021-02-16T11:24:52Z,(A) Certified Food Protection Manager (C),Pass,No one working this shift has a current food safety certification  ensure there is a certified food safety PIC on site during hours of operation,753 E Broadway,South Boston,MA,2127
BOSTON BAGEL COMPANY,,Totoni,Klaudjon,353202,2018-01-05T15:51:11Z,2021-12-31T23:59:00Z,Active,FS,Eating & Drinking,HE_Pass,2021-02-16T11:24:52Z,Effectiveness-Hair Restraints (C),Pass,Ensure all food handlers have on proper hair restraints when working with food,753 E Broadway,South Boston,MA,2127
BOSTON BAGEL COMPANY,,Totoni,Klaudjon,353202,2018-01-05T15:51:11Z,2021-12-31T23:59:00Z,Active,FS,Eating & Drinking,HE_Pass,2021-02-16T11:24:52Z,Preventing Contamination from Hands (C),Pass,Paper towels were empty at the hand sink  COS,753 E Broadway,South Boston,MA,2127
BOSTON BAGEL COMPANY,,Totoni,Klaudjon,353202,2018-01-05T15:51:11Z,2021-12-31T23:59:00Z,Active,FS,Eating & Drinking,HE_Pass,2021-02-16T11:24:52Z,Nonfood-Contact Surfaces (C),Pass,Clean all shelving units containing the bagels from all visible food spills from the bagel ingredients [ poppy seeds  sesame seeds  peppercorns ]                                                                                                                                                                                                   Clean inside and outside of all refrigeration / freezer units from food spills  stains and soils,753 E Broadway,South Boston,MA,2127
BOSTON BAGEL COMPANY,,Totoni,Klaudjon,353202,2018-01-05T15:51:11Z,2021-12-31T23:59:00Z,Active,FS,Eating & Drinking,HE_Pass,2021-02-16T11:24:52Z,Floors  Walls and Ceilings-Cleanability (C),Pass,Clean floor of the walk -in freezer from visible ice build up and food spills,753 E Broadway,South Boston,MA,2127
BROADWAY PASTRY,,Aobh Inc.,Arian Hysenaj,148349,2015-10-02T08:21:49Z,2021-12-31T23:59:00Z,Active,FT,Eating & Drinking w/ Take Out,HE_Filed,2021-02-24T14:59:20Z,Assignment (Pf),Pass,No current health permit on site - owner was unaware of the situation - address immediately,258 W Broadway,South Boston,MA,2127
BROADWAY PASTRY,,Aobh Inc.,Arian Hysenaj,148349,2015-10-02T08:21:49Z,2021-12-31T23:59:00Z,Active,FT,Eating & Drinking w/ Take Out,HE_Filed,2021-02-24T14:59:20Z,Effectiveness-Hair Restraints (C),Pass,Ensure all staff working with food have on  proper hair restraints during hours of operation,258 W Broadway,South Boston,MA,2127
BROADWAY PASTRY,,Aobh Inc.,Arian Hysenaj,148349,2015-10-02T08:21:49Z,2021-12-31T23:59:00Z,Active,FT,Eating & Drinking w/ Take Out,HE_Filed,2021-02-24T14:59:20Z,Drying Mops (C),Pass,Discontinue placing soiled in use mops and brooms stored directly on the floor when  NOT in use - keep inside the mop bucket and / or elevated off the floor as discussed,258 W Broadway,South Boston,MA,2127
BROADWAY PASTRY,,Aobh Inc.,Arian Hysenaj,148349,2015-10-02T08:21:49Z,2021-12-31T23:59:00Z,Active,FT,Eating & Drinking w/ Take Out,HE_Filed,2021-02-24T14:59:20Z,,Fail,Post 2021 health permit in a conspicuous location as discussed,258 W Broadway,South Boston,MA,2127
BROADWAY'S BEST PIZZA,,Yalcinkaya,Ismail,407350,2019-09-23T12:55:22Z,2021-12-31T23:59:00Z,Active,FT,Eating & Drinking w/ Take Out,HE_Pass,2021-02-03T15:55:43Z,Clean Condition-Outer Clothing (C),Pass,Ensure all food handlers have on clean aprons and / or uniforms during food preperation and cooking procedures. Much accumulation of food spills currently on the aprons of prep cooks,483 E Broadway,South Boston,MA,2127
BROADWAY'S BEST PIZZA,,Yalcinkaya,Ismail,407350,2019-09-23T12:55:22Z,2021-12-31T23:59:00Z,Active,FT,Eating & Drinking w/ Take Out,HE_Pass,2021-02-03T15:55:43Z,Packaged and Unpackaged Food-Separation  Packaging  and Segregation  (C),Pass,Ensure all foods are elevated off the floor in all areas of the restaurant a minmimum of six inches -  keep all raw proteins stored underneath all fresh produce and other ready to eat foods in all refrigeration units to reduve potential contamination,483 E Broadway,South Boston,MA,2127
BROADWAY'S BEST PIZZA,,Yalcinkaya,Ismail,407350,2019-09-23T12:55:22Z,2021-12-31T23:59:00Z,Active,FT,Eating & Drinking w/ Take Out,HE_Pass,2021-02-03T15:55:43Z,Food Contact with Equipment  Utensils  and Linens (P),Pass,Blade of the ice cream dispenser is visibly compromised   remove to clean and / or replace if soils are unable to be remove  necessary iun order to continue use,483 E Broadway,South Boston,MA,2127
BROADWAY'S BEST PIZZA,,Yalcinkaya,Ismail,407350,2019-09-23T12:55:22Z,2021-12-31T23:59:00Z,Active,FT,Eating & Drinking w/ Take Out,HE_Pass,2021-02-03T15:55:43Z,Wiping Cloths  Use Limitation (C),Pass,Set up as discussed - one for raw foods and one for ready to eat foods,483 E Broadway,South Boston,MA,2127
BROADWAY'S BEST PIZZA,,Yalcinkaya,Ismail,407350,2019-09-23T12:55:22Z,2021-12-31T23:59:00Z,Active,FT,Eating & Drinking w/ Take Out,HE_Pass,2021-02-03T15:55:43Z,Ventilation Hood Systems  Filters (C),Pass,Clean to remove built up grease on the hood filters where needed,483 E Broadway,South Boston,MA,2127
BROADWAY'S BEST PIZZA,,Yalcinkaya,Ismail,407350,2019-09-23T12:55:22Z,2021-12-31T23:59:00Z,Active,FT,Eating & Drinking w/ Take Out,HE_Pass,2021-02-03T15:55:43Z,Wiping Cloths  Air Drying Location (C),Pass,Discontinue discarding soiled wiping cloths on the floor. store as discussed to reduce potential contamination,483 E Broadway,South Boston,MA,2127
BROADWAY'S BEST PIZZA,,Yalcinkaya,Ismail,407350,2019-09-23T12:55:22Z,2021-12-31T23:59:00Z,Active,FT,Eating & Drinking w/ Take Out,HE_Pass,2021-02-03T15:55:43Z,Using a Handwashing Sink-Operation and Maintenance (Pf),Pass,Rinsing out wiping cloths in the hand sinkl then air drying them along the side - discard practices and keep all hand sinks clean and accessable as discussed,483 E Broadway,South Boston,MA,2127
BROADWAY'S BEST PIZZA,,Yalcinkaya,Ismail,407350,2019-09-23T12:55:22Z,2021-12-31T23:59:00Z,Active,FT,Eating & Drinking w/ Take Out,HE_Pass,2021-02-03T15:55:43Z,Grease Trap(C),Pass,Clean to remove grease and grime,483 E Broadway,South Boston,MA,2127
BROADWAY'S BEST PIZZA,,Yalcinkaya,Ismail,407350,2019-09-23T12:55:22Z,2021-12-31T23:59:00Z,Active,FT,Eating & Drinking w/ Take Out,HE_Pass,2021-02-03T15:55:43Z,Floors  Walls and Ceilings-Cleanability (C),Pass,Clean floors and walls in the kitchen prep areas where needed from all visible food spills  stains and soils,483 E Broadway,South Boston,MA,2127
BROADWAY'S BEST PIZZA,,Yalcinkaya,Ismail,407350,2019-09-23T12:55:22Z,2021-12-31T23:59:00Z,Active,FT,Eating & Drinking w/ Take Out,HE_Pass,2021-02-03T15:55:43Z,Wall and Ceiling Coverings and Coatings (C),Pass,Replace stained and / or compromised ceiling tiles where needed,483 E Broadway,South Boston,MA,2127
BURGER KING,Omar Bentaj/iftikhar Bhati,North East Foods Llc,Shoukat Dhanani,86896,2013-02-27T09:25:07Z,2021-12-31T23:59:00Z,Active,FT,Eating & Drinking w/ Take Out,HE_Filed,2021-02-08T15:36:18Z,Nonfood-Contact Surfaces (C),Fail,Shelving units in the refrigerated walk in units appear compromised with peeling black paint - clean and resurface as discussed or replace as discussed during inspection                                                                                                                                                              There is a metal unit attached to an exposed wooden plank in the rear of the restaurant  resurface wooden shelf as discussed PIC was unable to explain the proper use for the unit  address,280 W Broadway,South Boston,MA,2127
BURGER KING,Omar Bentaj/iftikhar Bhati,North East Foods Llc,Shoukat Dhanani,86896,2013-02-27T09:25:07Z,2021-12-31T23:59:00Z,Active,FT,Eating & Drinking w/ Take Out,HE_Filed,2021-02-08T15:36:18Z,Walls and Ceilings  Attachments (C),Fail,Several areas of the walls and floor of the refrigerated walk-in unit have started to rot from rust and condensation - need to address the compromised locations as to remove all affected areas and replace as discussed during inspection.  Compromised areas are worse where the walls and floor meet  especially by the entrance - address as discussed during inspection,280 W Broadway,South Boston,MA,2127
BURGER KING,Omar Bentaj/iftikhar Bhati,North East Foods Llc,Shoukat Dhanani,86896,2013-02-27T09:25:07Z,2021-12-31T23:59:00Z,Active,FT,Eating & Drinking w/ Take Out,HE_Filed,2021-02-08T15:36:18Z,Designation-Dressing Areas and Lockers (C),Pass,The area segragated for the dressing room and lockers is insufficient. No lockers or clean furniture for staff to properly put on clean uniforms   shoes and aprons. Current location needs to cleaned  remove soiled shelves and provide a suitable area for staff to change and store their personal belongings as discussed during inspection,280 W Broadway,South Boston,MA,2127
C & G SERVICE,,C & G Service Corp.,,129879,2015-04-30T11:25:42Z,2021-12-31T23:59:00Z,Active,RF,Retail Food,HE_Filed,2021-01-27T15:37:45Z,Packaged and Unpackaged Food-Separation  Packaging  and Segregation  (C),Fail,Ensure all cases of soda  water and chips are stored elevated off the floor a minimum of six inches during srorage as discussed,77  L ST,South Boston,MA,2127
CAFE MAMTAZ,Bishop,Saimon Abe Llc,Mohammad Alam,34590,2012-02-06T10:44:08Z,2021-12-31T23:59:00Z,Active,FT,Eating & Drinking w/ Take Out,HE_Pass,2020-11-13T15:56:19Z,(A) Certified Food Protection Manager (C),Pass,Ensure a current food safety certificate is available as discussed on premise,87   L STREET ST,SOUTH BOSTON,MA,2127
CAFE MAMTAZ,Bishop,Saimon Abe Llc,Mohammad Alam,34590,2012-02-06T10:44:08Z,2021-12-31T23:59:00Z,Active,FT,Eating & Drinking w/ Take Out,HE_Pass,2020-11-13T15:56:19Z,Handwashing Aids and Devices  Use Restrictions (C),Pass,Paper towel dispenser above the prep hand sink is compromised - replace or address as discussed,87   L STREET ST,SOUTH BOSTON,MA,2127
CAFE POLONIA,Darek Barcikowski,Darek Barcikowski,,22381,2012-02-15T13:50:54Z,2021-12-31T23:59:00Z,Active,FS,Eating & Drinking,HE_Pass,2021-04-22T14:48:03Z,(A) Certified Food Protection Manager (C),Pass,Post a current copy of a food safety and allergen certificate as discussed,611   Dorchester AVE,South Boston,MA,2127
CAFE POLONIA,Darek Barcikowski,Darek Barcikowski,,22381,2012-02-15T13:50:54Z,2021-12-31T23:59:00Z,Active,FS,Eating & Drinking,HE_Pass,2021-04-22T14:48:03Z,Washing Fruits and Vegetables (C),Pass,designate and identify the prep sink as discussed,611   Dorchester AVE,South Boston,MA,2127
CAFE POLONIA,Darek Barcikowski,Darek Barcikowski,,22381,2012-02-15T13:50:54Z,2021-12-31T23:59:00Z,Active,FS,Eating & Drinking,HE_Pass,2021-04-22T14:48:03Z,Cooling (P),Pass,Cooling large batches of soup in deep metal pots - minimize as discussed and cool within the time frame discussed during inspection,611   Dorchester AVE,South Boston,MA,2127
CAFE POLONIA,Darek Barcikowski,Darek Barcikowski,,22381,2012-02-15T13:50:54Z,2021-12-31T23:59:00Z,Active,FS,Eating & Drinking,HE_Pass,2021-04-22T14:48:03Z,Sponges Use Limitation (C),Pass,Discontinue use of sponges to clean food contact surfaces,611   Dorchester AVE,South Boston,MA,2127
CAFE POLONIA,Darek Barcikowski,Darek Barcikowski,,22381,2012-02-15T13:50:54Z,2021-12-31T23:59:00Z,Active,FS,Eating & Drinking,HE_Pass,2021-04-22T14:48:03Z,Temperature Measuring Devices  Food-Accuracy (Pf),Pass,No food thermometer on site - provide,611   Dorchester AVE,South Boston,MA,2127
CAFE POLONIA,Darek Barcikowski,Darek Barcikowski,,22381,2012-02-15T13:50:54Z,2021-12-31T23:59:00Z,Active,FS,Eating & Drinking,HE_Pass,2021-04-22T14:48:03Z,Service Sink (C),Pass,Enclose the slop sink l;ocation as discussed,611   Dorchester AVE,South Boston,MA,2127
CAFE POLONIA,Darek Barcikowski,Darek Barcikowski,,22381,2012-02-15T13:50:54Z,2021-12-31T23:59:00Z,Active,FS,Eating & Drinking,HE_Pass,2021-04-22T14:48:03Z,Handwashing Signage  (C),Pass,"Provide "" HAND WASHING ONLY ' signs above all designated hand sinks",611   Dorchester AVE,South Boston,MA,2127
CAFE PORTO BELLO,,Steven Costa/vincent,Amato,20251,2011-12-09T11:34:48Z,2021-12-31T23:59:00Z,Active,FS,Eating & Drinking,HE_Filed,2020-11-20T15:19:46Z,Effectiveness-Hair Restraints (C),Fail,Ensure all employees working with foods have on proper hair restraints as discussed,672 E Broadway,South Boston,MA,2127
CAFE PORTO BELLO,,Steven Costa/vincent,Amato,20251,2011-12-09T11:34:48Z,2021-12-31T23:59:00Z,Active,FS,Eating & Drinking,HE_Filed,2020-11-20T15:19:46Z,Thawing (C),Fail,Thawing frozen scallops in stagnant water  discontinue and thaw as discussed,672 E Broadway,South Boston,MA,2127
CAFE PORTO BELLO,,Steven Costa/vincent,Amato,20251,2011-12-09T11:34:48Z,2021-12-31T23:59:00Z,Active,FS,Eating & Drinking,HE_Filed,2020-11-20T15:19:46Z,Maintaining Premises  Unnecessary Items and Litter (C),Fail,Ensure all personal clothing  bags and articles are stored segragated from food service and food service areas as discussed,672 E Broadway,South Boston,MA,2127
CAFFE NERO,,Caffe Nero America's Inc.,Michael Deagan,319055,2017-12-19T10:29:19Z,2021-12-31T23:59:00Z,Active,FS,Eating & Drinking,HE_Filed,2021-03-23T14:16:48Z,Nonfood-Contact Surfaces (C),Fail,Clean inside and the exterior of all refrigeration / freezer units as well as the outside of the ice bin from visible food soils,416 W Broadway,South Boston,MA,2127
CLOCK TAVERN,,Paul,Adamson,18229,2012-01-09T15:06:56Z,2021-12-31T23:59:00Z,Active,FS,Eating & Drinking,HE_Pass,2021-02-16T14:37:19Z,Compliance with Food Law  (Pf),Pass,PIC was unable to provide wholesale receipts for food being served on the premises  ensure all foods being sold at the facility are purchased from a reputable commercial wholesaler as discussed during inspection,342 W BROADWAY,SOUTH BOSTON,MA,2127
CLOCK TAVERN,,Paul,Adamson,18229,2012-01-09T15:06:56Z,2021-12-31T23:59:00Z,Active,FS,Eating & Drinking,HE_Pass,2021-02-16T14:37:19Z,Sponges Use Limitation (C),Pass,Discontinue use of sponges to clean top of bar and other food contact surfaces sponges are o.k for NON- food contact surfaces as discussed during inspection [ floors and walls ],342 W BROADWAY,SOUTH BOSTON,MA,2127
CLOCK TAVERN,,Paul,Adamson,18229,2012-01-09T15:06:56Z,2021-12-31T23:59:00Z,Active,FS,Eating & Drinking,HE_Pass,2021-02-16T14:37:19Z,Floors  Walls and Ceilings-Cleanability (C),Pass,Pooling water from the snow and ice accumulation by the front entrance  clean to remove throughout the day during hours of operation,342 W BROADWAY,SOUTH BOSTON,MA,2127
COFFEE SHOP,Rekowski Andrew,Rekowski,Andrew,18489,2011-12-16T11:32:12Z,2021-12-31T23:59:00Z,Active,FT,Eating & Drinking w/ Take Out,HE_Pass,2021-02-12T11:11:44Z,Compliance with Food Law  (Pf),Pass,Several foods are being ourchased from retail facilities  discontinue and only purchase foods from a professionally licensed wholesale company as discussed,11   Elkins ST,South Boston,MA,2127
COFFEE SHOP,Rekowski Andrew,Rekowski,Andrew,18489,2011-12-16T11:32:12Z,2021-12-31T23:59:00Z,Active,FT,Eating & Drinking w/ Take Out,HE_Pass,2021-02-12T11:11:44Z,Food Labels (Pf),Pass,Several baked goods out for retail sale do not have a proper label to provide ingredients and allergen information  address,11   Elkins ST,South Boston,MA,2127
COFFEE SHOP,Rekowski Andrew,Rekowski,Andrew,18489,2011-12-16T11:32:12Z,2021-12-31T23:59:00Z,Active,FT,Eating & Drinking w/ Take Out,HE_Pass,2021-02-12T11:11:44Z,Nonfood-Contact Surfaces (C),Pass,Clean inside and outside of all refrigeration uniuts   cooking equipment  inside of the microwave as well as the exterior of all bilk food storage bins,11   Elkins ST,South Boston,MA,2127
COFFEE SHOP,Rekowski Andrew,Rekowski,Andrew,18489,2011-12-16T11:32:12Z,2021-12-31T23:59:00Z,Active,FT,Eating & Drinking w/ Take Out,HE_Pass,2021-02-12T11:11:44Z,Temperature Measuring Devices-Functionality  (C),Pass,Ensure food thermometer is clean and in proper working order  battery was replaced during inspection,11   Elkins ST,South Boston,MA,2127
COFFEE SHOP,Rekowski Andrew,Rekowski,Andrew,18489,2011-12-16T11:32:12Z,2021-12-31T23:59:00Z,Active,FT,Eating & Drinking w/ Take Out,HE_Pass,2021-02-12T11:11:44Z,Service Sink (C),Pass,Address as discussed - current location is too small,11   Elkins ST,South Boston,MA,2127
COFFEE SHOP,Rekowski Andrew,Rekowski,Andrew,18489,2011-12-16T11:32:12Z,2021-12-31T23:59:00Z,Active,FT,Eating & Drinking w/ Take Out,HE_Pass,2021-02-12T11:11:44Z,Floors  Walls and Ceilings-Cleanability (C),Pass,Clean floors  walls and ceiling areas where needed from visible food spills  stains and soils,11   Elkins ST,South Boston,MA,2127
COFFEE SHOP,Rekowski Andrew,Rekowski,Andrew,18489,2011-12-16T11:32:12Z,2021-12-31T23:59:00Z,Active,FT,Eating & Drinking w/ Take Out,HE_Pass,2021-02-12T11:11:44Z,,Pass,The permit is in renewals  ensure2021 health permit has been paid for upon re-inspection,11   Elkins ST,South Boston,MA,2127
COPPERSMITH HALL,Conticast Corporation,Coppersmith Hall L L C,,127125,2015-09-18T08:41:43Z,2021-12-31T23:59:00Z,Active,FS,Eating & Drinking,HE_Pass,2020-12-09T15:47:47Z,(A)-(P) Person-In-Charge-Duties (Pf),Pass,No current food safety certificate on site - new staff in the kitchen but no one has proper credentials  address as discussed,30 W Third ST,South Boston,MA,2127
COPPERSMITH HALL,Conticast Corporation,Coppersmith Hall L L C,,127125,2015-09-18T08:41:43Z,2021-12-31T23:59:00Z,Active,FS,Eating & Drinking,HE_Pass,2020-12-09T15:47:47Z,Ice (P),Pass,Interior of the ice machine is visibly soiled  around the lid and surrounding areas - clean to remove all visible soils,30 W Third ST,South Boston,MA,2127
COPPERSMITH HALL,Conticast Corporation,Coppersmith Hall L L C,,127125,2015-09-18T08:41:43Z,2021-12-31T23:59:00Z,Active,FS,Eating & Drinking,HE_Pass,2020-12-09T15:47:47Z,In-Use Utensils  Between-Use Storage (C),Pass,Store ice scoop as discussed [ in a clean area with the handle facing outward ],30 W Third ST,South Boston,MA,2127
COPPERSMITH HALL,Conticast Corporation,Coppersmith Hall L L C,,127125,2015-09-18T08:41:43Z,2021-12-31T23:59:00Z,Active,FS,Eating & Drinking,HE_Pass,2020-12-09T15:47:47Z,Nonfood-Contact Surfaces (C),Pass,Clean exterior of the ice machine   clean exterior nof all cooking equipment  clean inside and outside of all refrigeration / freezer units from visible food spills  stains and soils,30 W Third ST,South Boston,MA,2127
COPPERSMITH HALL,Conticast Corporation,Coppersmith Hall L L C,,127125,2015-09-18T08:41:43Z,2021-12-31T23:59:00Z,Active,FS,Eating & Drinking,HE_Pass,2020-12-09T15:47:47Z,Manual Warewashing Equipment  Heaters and Baskets (Pf),Pass,Blue plastic barriers at the ends of the ware washing machine are visibly compromised - replace,30 W Third ST,South Boston,MA,2127
CROKE PARK,,John D. Mccormack,,19674,2011-12-23T11:25:26Z,2021-12-31T23:59:00Z,Active,FS,Eating & Drinking,HE_Pass,2021-03-17T15:10:46Z,Ice (P),Pass,Clean interior of ice machine from all soils   especially under the lid,268 W Broadway,South Boston,MA,2127
CROKE PARK,,John D. Mccormack,,19674,2011-12-23T11:25:26Z,2021-12-31T23:59:00Z,Active,FS,Eating & Drinking,HE_Pass,2021-03-17T15:10:46Z,Wiping Cloths  Air Drying Location (C),Pass,,268 W Broadway,South Boston,MA,2127
CROKE PARK,,John D. Mccormack,,19674,2011-12-23T11:25:26Z,2021-12-31T23:59:00Z,Active,FS,Eating & Drinking,HE_Pass,2021-03-17T15:10:46Z,Toilets and Urinals (C),Pass,Clean restrooms from all visible soils and obnoxious odors,268 W Broadway,South Boston,MA,2127
CROKE PARK,,John D. Mccormack,,19674,2011-12-23T11:25:26Z,2021-12-31T23:59:00Z,Active,FS,Eating & Drinking,HE_Pass,2021-03-17T15:10:46Z,Floors  Walls and Ceilings-Cleanability (C),Pass,Clean floors behind the bar as well as all other areas to remove bottle caps and loose debris - clean walls behind the bar from visible splashes,268 W Broadway,South Boston,MA,2127
CROKE PARK,,John D. Mccormack,,19674,2011-12-23T11:25:26Z,2021-12-31T23:59:00Z,Active,FS,Eating & Drinking,HE_Pass,2021-03-17T15:10:46Z,Handwashing Signage  (C),Pass,Clearly label hand sink behind the bar,268 W Broadway,South Boston,MA,2127
CROKE PARK,,John D. Mccormack,,19674,2011-12-23T11:25:26Z,2021-12-31T23:59:00Z,Active,FS,Eating & Drinking,HE_Pass,2021-03-17T15:10:46Z,Drying Mops (C),Pass,Keep soiled mops elevated off the floor when not in use,268 W Broadway,South Boston,MA,2127
CROKE PARK,,John D. Mccormack,,19674,2011-12-23T11:25:26Z,2021-12-31T23:59:00Z,Active,FS,Eating & Drinking,HE_Pass,2021-03-17T15:10:46Z,Closing Toilet Room Doors (C),Pass,,268 W Broadway,South Boston,MA,2127
CVS/PHARMACY NO. 979,Cvs Lic. Dept./therese Fluette,Cvs Pharmacy Inc.,Lic. Dept. Mail Code 1160,24413,2011-12-28T11:38:57Z,2021-12-31T23:59:00Z,Active,RF,Retail Food,HE_Filed,2021-01-25T15:38:00Z,Cleaning Implements and Supplies (C),Fail,Men's toilet heavily soiled. Clean and maintain.,423 W Broadway,South Boston,MA,2127
CVS/PHARMACY NO. 979,Cvs Lic. Dept./therese Fluette,Cvs Pharmacy Inc.,Lic. Dept. Mail Code 1160,24413,2011-12-28T11:38:57Z,2021-12-31T23:59:00Z,Active,RF,Retail Food,HE_Filed,2021-01-25T15:38:00Z,,Fail,8-304.11 (A) post current permit in a location in the establishment that is conspicuous to consumers.,423 W Broadway,South Boston,MA,2127
DEJA - BREW,Walsh Catherine J,Walsh,Catherine J,20241,2012-06-04T08:53:58Z,2021-12-31T23:59:00Z,Active,FS,Eating & Drinking,HE_Filed,2021-04-02T14:01:47Z,Packaged and Unpackaged Food-Separation  Packaging  and Segregation  (C),Fail,When storing foods of any kind ensure to keep elevated off the floors a minimum of six inches to reduce potential contamination when washing the floors,704 E Broadway,South Boston,MA,2127
DEJA - BREW,Walsh Catherine J,Walsh,Catherine J,20241,2012-06-04T08:53:58Z,2021-12-31T23:59:00Z,Active,FS,Eating & Drinking,HE_Filed,2021-04-02T14:01:47Z,Handwashing Signage  (C),Fail,"Ensure all hand sinks that are designated as such are properly identifed "" HAND WASHING ONLY""",704 E Broadway,South Boston,MA,2127
DEJA - BREW,Walsh Catherine J,Walsh,Catherine J,20241,2012-06-04T08:53:58Z,2021-12-31T23:59:00Z,Active,FS,Eating & Drinking,HE_Filed,2021-04-02T14:01:47Z,Closing Toilet Room Doors (C),Fail,Restroom doors shall be self-closing  address as discussed,704 E Broadway,South Boston,MA,2127
DOMINO'S PIZZA,,Dufficy Enterprises Inc.,Jeffrey P. Dufficy,80529,2012-10-05T11:20:17Z,2021-12-31T23:59:00Z,Active,FT,Eating & Drinking w/ Take Out,HE_Filed,2021-03-02T13:53:21Z,Service Sink (C),Pass,Enclose side,163   Old Colony AVE,South Boston,MA,2127
DOMINO'S PIZZA,,Dufficy Enterprises Inc.,Jeffrey P. Dufficy,80529,2012-10-05T11:20:17Z,2021-12-31T23:59:00Z,Active,FT,Eating & Drinking w/ Take Out,HE_Filed,2021-03-02T13:53:21Z,Grease Trap(C),Fail,Grease trap is visibly rusted and tarnished  clean to remove and all visible soils resurface as discussed during inspection,163   Old Colony AVE,South Boston,MA,2127
DOMINO'S PIZZA,,Dufficy Enterprises Inc.,Jeffrey P. Dufficy,80529,2012-10-05T11:20:17Z,2021-12-31T23:59:00Z,Active,FT,Eating & Drinking w/ Take Out,HE_Filed,2021-03-02T13:53:21Z,Walls and Ceilings  Attachments (C),Pass,Replace compromised door sweep leading to the alleyway  light shining through means rodents can potentionally enter as well,163   Old Colony AVE,South Boston,MA,2127
DOUGHBOY DONUTS & DELI,Powers James R Trst,Doughboy Corp.,,85000,2012-12-05T08:56:12Z,2021-12-31T23:59:00Z,Active,FT,Eating & Drinking w/ Take Out,HE_Filed,2021-01-28T13:10:05Z,Time as a Public Health Control ( C),Fail,Flat of raw shell eggs on top of the counter - discard practices and keep eggs cold at 41F or lower - can receive eggs at 45F but they must be refrigerated immediately- Eggs were at 41F - No cold holding violation  just bad retail practice - owner addressed it immmediately,220   Dorchester AVE,South Boston,MA,2127
DOUGHBOY DONUTS & DELI,Powers James R Trst,Doughboy Corp.,,85000,2012-12-05T08:56:12Z,2021-12-31T23:59:00Z,Active,FT,Eating & Drinking w/ Take Out,HE_Filed,2021-01-28T13:10:05Z,Sponges Use Limitation (C),Fail,Discard the use of sponges to clean any food contact surfaces - o.k for floors  walls and ceilings  - no food contact surfaces,220   Dorchester AVE,South Boston,MA,2127
DOUGHBOY DONUTS & DELI,Powers James R Trst,Doughboy Corp.,,85000,2012-12-05T08:56:12Z,2021-12-31T23:59:00Z,Active,FT,Eating & Drinking w/ Take Out,HE_Filed,2021-01-28T13:10:05Z,Clean Linens (C),Fail,Ensure all clean linen and laundered material is stored away from food service areas to reduce potential contamination  keep covered and segragated as discussed,220   Dorchester AVE,South Boston,MA,2127
DUNKIN DONUTS,,Watermark Donut Company,,30498,2012-02-10T12:09:10Z,2021-12-31T23:59:00Z,Active,FT,Eating & Drinking w/ Take Out,HE_Filed,2021-02-10T10:58:14Z,,Fail,8-304.11 (A) Post the current permit in a location in the food establishment that is cionspicuous to consumers.,1   Harbor ST,South Boston,Ma,2127
DUNKIN DONUTS,Murphys Donuts Inc,Gillespie,John,18678,2012-02-09T10:27:43Z,2021-12-31T23:59:00Z,Active,FT,Eating & Drinking w/ Take Out,HE_Pass,2021-02-16T11:05:23Z,Temperature Measuring Devices  Manual and Mechanical Warewashing (Pf),Pass,No irreversible thermometer or temperature strips for monitoring dish machine temperature present. provide.,510   Southampton ST,South Boston,MA,2127
DUNKIN DONUTS,Murphys Donuts Inc,Gillespie,John,18678,2012-02-09T10:27:43Z,2021-12-31T23:59:00Z,Active,FT,Eating & Drinking w/ Take Out,HE_Pass,2021-02-16T11:05:23Z,Using a Handwashing Sink-Operation and Maintenance (Pf),Pass,Hand sink blocked by shelving. Move shelving to allow access to hand sink. Hand sink on opposite wall currently used by staff when warewashing.,510   Southampton ST,South Boston,MA,2127
DUNKIN DONUTS,Murphys Donuts Inc,Gillespie,John,18678,2012-02-09T10:27:43Z,2021-12-31T23:59:00Z,Active,FT,Eating & Drinking w/ Take Out,HE_Pass,2021-02-16T11:05:23Z,,Pass,8-304.11 (A) Post the current permit in a location in the food establishment that is conspicuous to consumers.,510   Southampton ST,South Boston,MA,2127
DUNKIN DONUTS (48 W BROADWAY),,Watermark Donut Co.,,80139,2013-03-11T08:20:39Z,2021-12-31T23:59:00Z,Active,FT,Eating & Drinking w/ Take Out,HE_Filed,2021-02-09T10:47:48Z,Cleaning Ventilation Systems  Nuisance and Discharge Prohibition (C),Fail,Exhaust hood sticker indicates last cleaned March 2013  expired September 2013. Confirm if hood is operating and/or in need of cleaning.,48 W Broadway,South Boston,MA,2127
DUNKIN DONUTS (48 W BROADWAY),,Watermark Donut Co.,,80139,2013-03-11T08:20:39Z,2021-12-31T23:59:00Z,Active,FT,Eating & Drinking w/ Take Out,HE_Filed,2021-02-09T10:47:48Z,,Fail,8-304.11 (A) Post the current permit in a location in the food establishment that is conspicuous to consumers.,48 W Broadway,South Boston,MA,2127
DUNKIN DONUTS (48 W BROADWAY),,Watermark Donut Co.,,80139,2013-03-11T08:20:39Z,2021-12-31T23:59:00Z,Active,FT,Eating & Drinking w/ Take Out,HE_Pass,2020-09-03T14:20:35Z,,Pass,,48 W Broadway,South Boston,MA,2127
DUNKIN DONUTS AT OLD COLONY,John Gillespie,John Gillespie,,20629,2012-02-09T10:24:31Z,2021-12-31T23:59:00Z,Active,FT,Eating & Drinking w/ Take Out,HE_Pass,2021-03-24T11:16:40Z,Ice (P),Pass,Clean to remove visible soils observed along the Runners in the ice machine and around the lid - sliding plastic small grey doors above the lid should be removed and cleaned as discussed,75   OLD COLONY  AV,SOUTH BOSTON,MA,2127
DUNKIN DONUTS AT OLD COLONY,John Gillespie,John Gillespie,,20629,2012-02-09T10:24:31Z,2021-12-31T23:59:00Z,Active,FT,Eating & Drinking w/ Take Out,HE_Pass,2021-03-24T11:16:40Z,Packaged and Unpackaged Food-Separation  Packaging  and Segregation  (C),Pass,Ensure all exposed foods being stored in the walk-in unit including the open containers of liquid coffee are properly coverered during extended periods of refrigeration storage,75   OLD COLONY  AV,SOUTH BOSTON,MA,2127
ETHEL & ANDY'S SUB SHOP,Rekowski,Rekowski,Ethel,18676,2011-12-16T11:35:24Z,2021-12-31T23:59:00Z,Active,FT,Eating & Drinking w/ Take Out,HE_Pass,2021-02-12T10:46:28Z,Packaged and Unpackaged Food-Separation  Packaging  and Segregation  (C),Pass,Ensure raw shell eggs are stored underneath produce in the walk in,134  K ST,South Boston,MA,2127
ETHEL & ANDY'S SUB SHOP,Rekowski,Rekowski,Ethel,18676,2011-12-16T11:35:24Z,2021-12-31T23:59:00Z,Active,FT,Eating & Drinking w/ Take Out,HE_Pass,2021-02-12T10:46:28Z,Consumption of Animal Foods that are Raw  Undercooked  or Not Otherwise Processed to Eliminate Pathogens (Pf),Pass,Ensure new menu has the proper disclosure / reminder as discussed on all foods offered under cooked,134  K ST,South Boston,MA,2127
ETHEL & ANDY'S SUB SHOP,Rekowski,Rekowski,Ethel,18676,2011-12-16T11:35:24Z,2021-12-31T23:59:00Z,Active,FT,Eating & Drinking w/ Take Out,HE_Pass,2021-02-12T10:46:28Z,Sponges Use Limitation (C),Pass,Discontinue the use of sponges to clean food contact surfaces  they can be used for floors and walls as discussed,134  K ST,South Boston,MA,2127
ETHEL & ANDY'S SUB SHOP,Rekowski,Rekowski,Ethel,18676,2011-12-16T11:35:24Z,2021-12-31T23:59:00Z,Active,FT,Eating & Drinking w/ Take Out,HE_Pass,2021-02-12T10:46:28Z,Wood  Use Limitation (C),Pass,Discontinue using wooden cutting surfaces that are not food grade - only a hard wood is acceptable for commercial use,134  K ST,South Boston,MA,2127
ETHEL & ANDY'S SUB SHOP,Rekowski,Rekowski,Ethel,18676,2011-12-16T11:35:24Z,2021-12-31T23:59:00Z,Active,FT,Eating & Drinking w/ Take Out,HE_Pass,2021-02-12T10:46:28Z,CIP Equipment (C),Pass,Clean all in place refrigeration and freezer units from visible soils,134  K ST,South Boston,MA,2127
ETHEL & ANDY'S SUB SHOP,Rekowski,Rekowski,Ethel,18676,2011-12-16T11:35:24Z,2021-12-31T23:59:00Z,Active,FT,Eating & Drinking w/ Take Out,HE_Pass,2021-02-12T10:46:28Z,Temperature Measuring Devices-Functionality (Pf),Pass,No working food thermometer on site  provide,134  K ST,South Boston,MA,2127
ETHEL & ANDY'S SUB SHOP,Rekowski,Rekowski,Ethel,18676,2011-12-16T11:35:24Z,2021-12-31T23:59:00Z,Active,FT,Eating & Drinking w/ Take Out,HE_Pass,2021-02-12T10:46:28Z,Grease Trap(C),Pass,Clean to remove rusted areas and soils,134  K ST,South Boston,MA,2127
ETHEL & ANDY'S SUB SHOP,Rekowski,Rekowski,Ethel,18676,2011-12-16T11:35:24Z,2021-12-31T23:59:00Z,Active,FT,Eating & Drinking w/ Take Out,HE_Pass,2021-02-12T10:46:28Z,Floors  Walls and Ceilings-Cleanability (C),Pass,Clean floors and walls in the back prep room where needed from food spills  stains and soils,134  K ST,South Boston,MA,2127
ETHEL & ANDY'S SUB SHOP,Rekowski,Rekowski,Ethel,18676,2011-12-16T11:35:24Z,2021-12-31T23:59:00Z,Active,FT,Eating & Drinking w/ Take Out,HE_Pass,2021-02-12T10:46:28Z,Handwashing Signage  (C),Pass,Clerarly identify all hand sinks properly,134  K ST,South Boston,MA,2127
ETHEL & ANDY'S SUB SHOP,Rekowski,Rekowski,Ethel,18676,2011-12-16T11:35:24Z,2021-12-31T23:59:00Z,Active,FT,Eating & Drinking w/ Take Out,HE_Pass,2021-02-12T10:46:28Z,Maintaining Premises  Unnecessary Items and Litter (C),Pass,Remove all personal belongings from food prep locations and store segragated as discussed,134  K ST,South Boston,MA,2127
FOX & THE KNIFE,,Akunowicz,Karen,379383,2019-01-29T15:49:04Z,2021-12-31T23:59:00Z,Active,FS,Eating & Drinking,HE_Pass,2020-10-01T14:31:40Z,Packaged and Unpackaged Food-Separation  Packaging  and Segregation (P),Pass,Observed raw pork and rabbit stored above RTE cold cuts. COS.,28 W Broadway,South Boston,MA,2127
FOX & THE KNIFE,,Akunowicz,Karen,379383,2019-01-29T15:49:04Z,2021-12-31T23:59:00Z,Active,FS,Eating & Drinking,HE_Pass,2020-10-01T14:31:40Z,Ventilation Hood Systems  Adequacy (C),Pass,Taible frialator in basment. Remove. Use under commercial vent hood in upstair kitchen. COS,28 W Broadway,South Boston,MA,2127
FROMAGE,,Tatyana Sukennik Pres.,,81028,2015-03-13T13:17:08Z,2021-12-31T23:59:00Z,Active,FS,Eating & Drinking,HE_Filed,2021-03-25T14:47:09Z,Ventilation Hood Systems  Filters (C),Fail,Clean vents in the hood from visible soils,399 W Broadway,South Boston,MA,2127
FROMAGE,,Tatyana Sukennik Pres.,,81028,2015-03-13T13:17:08Z,2021-12-31T23:59:00Z,Active,FS,Eating & Drinking,HE_Filed,2021-03-25T14:47:09Z,Service Sink (C),Fail,Enclose exposed area of the mop sink as discussed during inspection,399 W Broadway,South Boston,MA,2127
GILLETTE CAFETERIA,Sodexho Marriott,Sodexho Marriott,,21252,2012-01-05T13:05:21Z,2021-12-31T23:59:00Z,Active,FS,Eating & Drinking,HE_Pass,2020-11-20T10:43:01Z,Temperature Measuring Devices-Functionality (Pf),Pass,No proper temperature measuring device on site - address,1   Gillette PARK,South Boston,MA,2127
GILLETTE CAFETERIA,Sodexho Marriott,Sodexho Marriott,,21252,2012-01-05T13:05:21Z,2021-12-31T23:59:00Z,Active,FS,Eating & Drinking,HE_Pass,2020-11-20T10:43:01Z,Mechanical Warewashing Equipment  Hot Water Sanitization Temperatures (Pf),Pass,High temp dish machine is registering 152F at the highest - other forms of ware washing is available on site - discontinue using until the machine is operating properly as discussed during inspection,1   Gillette PARK,South Boston,MA,2127
GILLETTE CAFETERIA,Sodexho Marriott,Sodexho Marriott,,21252,2012-01-05T13:05:21Z,2021-12-31T23:59:00Z,Active,FS,Eating & Drinking,HE_Pass,2020-11-20T10:43:01Z,Wall and Ceiling Coverings and Coatings (C),Pass,Clean to remove visible dirt  dust and debris around the vents of the ceiling tiles where needed,1   Gillette PARK,South Boston,MA,2127
GILLETTE CAFETERIA,Sodexho Marriott,Sodexho Marriott,,21252,2012-01-05T13:05:21Z,2021-12-31T23:59:00Z,Active,FS,Eating & Drinking,HE_Pass,2020-11-20T10:43:01Z,Maintaining Premises  Unnecessary Items and Litter (C),Pass,Clean to remove all loose debris inside the under counter storage cabinets,1   Gillette PARK,South Boston,MA,2127
GILLETTE CAFETERIA,Sodexho Marriott,Sodexho Marriott,,21252,2012-01-05T13:05:21Z,2021-12-31T23:59:00Z,Active,FS,Eating & Drinking,HE_Pass,2020-11-20T10:43:01Z,Cleaning  Frequency and Restrictions (C),Pass,Clean floors of the dry foods storage room especially behind all the shelving units from visible food spills  stains and soils                                         Clean to remove visible ice build up in the walk - in freezer unit,1   Gillette PARK,South Boston,MA,2127
GO PUFF,Lahinch Limited Partnership,Gb Holdings Ma Llc,Att: Accounts Payable,397841,2019-06-07T15:45:09Z,2021-12-31T23:59:00Z,Active,RF,Retail Food,HE_Pass,2020-12-16T11:40:40Z,(A) Certified Food Protection Manager (C),Pass,With the large amount of food volume involved with this business there should be a PIC with a current food safety certificate on site as well as allergen awareness certificate  address,371   Dorchester AVE,South Boston,MA,2127
GO PUFF,Lahinch Limited Partnership,Gb Holdings Ma Llc,Att: Accounts Payable,397841,2019-06-07T15:45:09Z,2021-12-31T23:59:00Z,Active,RF,Retail Food,HE_Pass,2020-12-16T11:40:40Z,Packaged and Unpackaged Food-Separation  Packaging  and Segregation  (C),Pass,Ensure all foods are elevated off the floor at least six inches during storage including soda and water,371   Dorchester AVE,South Boston,MA,2127
GO PUFF,Lahinch Limited Partnership,Gb Holdings Ma Llc,Att: Accounts Payable,397841,2019-06-07T15:45:09Z,2021-12-31T23:59:00Z,Active,RF,Retail Food,HE_Pass,2020-12-16T11:40:40Z,Nonfood-Contact Surfaces (C),Pass,Clean all shelving units from visible food spills  stains and soils - clean inside all refrigeration / freezer units from visible food spils,371   Dorchester AVE,South Boston,MA,2127
GO PUFF,Lahinch Limited Partnership,Gb Holdings Ma Llc,Att: Accounts Payable,397841,2019-06-07T15:45:09Z,2021-12-31T23:59:00Z,Active,RF,Retail Food,HE_Pass,2020-12-16T11:40:40Z,Service Sink (C),Pass,Enclose the mop sink location as discusse during inspection to reduce potential contamination,371   Dorchester AVE,South Boston,MA,2127
GO PUFF,Lahinch Limited Partnership,Gb Holdings Ma Llc,Att: Accounts Payable,397841,2019-06-07T15:45:09Z,2021-12-31T23:59:00Z,Active,RF,Retail Food,HE_Pass,2020-12-16T11:40:40Z,Outside Receptacles (C),Pass,Ensure the lids of the dumpster are closed tightly at all times when not in use,371   Dorchester AVE,South Boston,MA,2127
GO PUFF,Lahinch Limited Partnership,Gb Holdings Ma Llc,Att: Accounts Payable,397841,2019-06-07T15:45:09Z,2021-12-31T23:59:00Z,Active,RF,Retail Food,HE_Pass,2020-12-16T11:40:40Z,Toilet Room Receptacle  Covered (C),Pass,Ensure all trash receptacles have a tight fitting lid including the restrooms,371   Dorchester AVE,South Boston,MA,2127
GO PUFF,Lahinch Limited Partnership,Gb Holdings Ma Llc,Att: Accounts Payable,397841,2019-06-07T15:45:09Z,2021-12-31T23:59:00Z,Active,RF,Retail Food,HE_Pass,2020-12-16T11:40:40Z,Floors  Walls and Ceilings-Cleanability (C),Pass,Clean floors throughout the facility including the restrooms and especially underneath all the shelving units containing groceries from visible food spills  stains and soils  - Clean ceiling tiles around the ceiling vents from visible dirt  dust and debris,371   Dorchester AVE,South Boston,MA,2127
GO PUFF,Lahinch Limited Partnership,Gb Holdings Ma Llc,Att: Accounts Payable,397841,2019-06-07T15:45:09Z,2021-12-31T23:59:00Z,Active,RF,Retail Food,HE_Pass,2020-12-16T11:40:40Z,Handwashing Signage  (C),Pass,Remove the paper towel dispenser and soap dispenser mounted on the wall above the mop sink,371   Dorchester AVE,South Boston,MA,2127
GO PUFF,Lahinch Limited Partnership,Gb Holdings Ma Llc,Att: Accounts Payable,397841,2019-06-07T15:45:09Z,2021-12-31T23:59:00Z,Active,RF,Retail Food,HE_Pass,2020-12-16T11:40:40Z,Controlling Pests (Pf),Pass,Visible signs of rodent dropping scattered throughout the warehouse storage room - contact pest control and provide an IPM report as discussed,371   Dorchester AVE,South Boston,MA,2127
GO PUFF,Lahinch Limited Partnership,Gb Holdings Ma Llc,Att: Accounts Payable,397841,2019-06-07T15:45:09Z,2021-12-31T23:59:00Z,Active,RF,Retail Food,HE_Pass,2020-12-16T11:40:40Z,Drying Mops (C),Pass,Remove soiled mops from being stored directly on the floor and store inside the mop sink as discussed,371   Dorchester AVE,South Boston,MA,2127
GO PUFF,Lahinch Limited Partnership,Gb Holdings Ma Llc,Att: Accounts Payable,397841,2019-06-07T15:45:09Z,2021-12-31T23:59:00Z,Active,RF,Retail Food,HE_Pass,2020-12-16T11:40:40Z,Closing Toilet Room Doors (C),Pass,Ensure attachments for the self closing device of the restroom doors are operating properly  currenlty the doors are not closing all the way without assistance from staff - address as discussed,371   Dorchester AVE,South Boston,MA,2127
GRAY'S HALL,,East Real Food Llc,Att: Accounts Payable,402199,2019-12-23T08:16:03Z,2021-12-31T23:59:00Z,Active,FS,Eating & Drinking,HE_Pass,2021-03-17T12:37:02Z,,Pass,,615 E Broadway,South Boston,MA,2127
JP LICKS @ WEST BROADWAY,,Jp Licks @ West Broadway,Vincent Petryk  Pres.,358744,2018-11-13T15:27:52Z,2021-12-31T23:59:00Z,Active,FT,Eating & Drinking w/ Take Out,HE_Filed,2021-03-25T14:03:03Z,Handwashing Signage  (C),Fail,"Ensure all hand sinks that are designated to be only hand sinks are clearly labeled as such "" HAND WASHING ONLY """,397 W Broadway,South Boston,MA,2127
JP LICKS @ WEST BROADWAY,,Jp Licks @ West Broadway,Vincent Petryk  Pres.,358744,2018-11-13T15:27:52Z,2021-12-31T23:59:00Z,Active,FT,Eating & Drinking w/ Take Out,HE_Filed,2021-03-25T14:03:03Z,Repairing-Premises  Structures  Attachments  and Fixtures-Methods (C),Fail,Ensure all CO-2 tanks are properly anchored to reduce potential accidents,397 W Broadway,South Boston,MA,2127
L STREET DINER,Aob Corp,Aob Corp,L Street Diner,22832,2012-02-14T12:43:31Z,2021-12-31T23:59:00Z,Active,FT,Eating & Drinking w/ Take Out,HE_Filed,2020-12-04T13:31:17Z,Clean Condition-Outer Clothing (C),Pass,Replace visibly soiled aprons worn by cooks on a more frequent basis throughout the day as needed - replace when there is an excessive accumulation of visible food soils,108   L ST,South Boston,MA,2127
L STREET DINER,Aob Corp,Aob Corp,L Street Diner,22832,2012-02-14T12:43:31Z,2021-12-31T23:59:00Z,Active,FT,Eating & Drinking w/ Take Out,HE_Filed,2020-12-04T13:31:17Z,Washing Fruits and Vegetables (C),Pass,,108   L ST,South Boston,MA,2127
L STREET DINER,Aob Corp,Aob Corp,L Street Diner,22832,2012-02-14T12:43:31Z,2021-12-31T23:59:00Z,Active,FT,Eating & Drinking w/ Take Out,HE_Filed,2020-12-04T13:31:17Z,Consumption of Animal Foods that are Raw  Undercooked  or Not Otherwise Processed to Eliminate Pathogens (Pf),Pass,"Ensure the proper disclosure / reminder is clearly visible on foods offered undercooked on the new menu such as "" eggs any style "" and steak tips",108   L ST,South Boston,MA,2127
L STREET DINER,Aob Corp,Aob Corp,L Street Diner,22832,2012-02-14T12:43:31Z,2021-12-31T23:59:00Z,Active,FT,Eating & Drinking w/ Take Out,HE_Filed,2020-12-04T13:31:17Z,Sponges Use Limitation (C),Pass,Discontinue use of sponges to clean food contact surfaces,108   L ST,South Boston,MA,2127
L STREET DINER,Aob Corp,Aob Corp,L Street Diner,22832,2012-02-14T12:43:31Z,2021-12-31T23:59:00Z,Active,FT,Eating & Drinking w/ Take Out,HE_Filed,2020-12-04T13:31:17Z,Drain boards (C),Pass,Ensure all locations that are being used to air dry clean pots and pans is visibly clean and segragated from potential contamination,108   L ST,South Boston,MA,2127
L STREET DINER,Aob Corp,Aob Corp,L Street Diner,22832,2012-02-14T12:43:31Z,2021-12-31T23:59:00Z,Active,FT,Eating & Drinking w/ Take Out,HE_Filed,2020-12-04T13:31:17Z,Warewashing Sinks  Use Limitation (C),Pass,Discontinue rinsing off fresh produce in the three bay sink and use your designated prep sink as discussed,108   L ST,South Boston,MA,2127
L STREET DINER,Aob Corp,Aob Corp,L Street Diner,22832,2012-02-14T12:43:31Z,2021-12-31T23:59:00Z,Active,FT,Eating & Drinking w/ Take Out,HE_Filed,2020-12-04T13:31:17Z,Nonfood Contact Surfaces (C),Pass,Clean inside and outside of all refrigeration / freezer units   exterior of all cooking equipmenmt   exterior of all bulk food containers from food soills  stains amd soils,108   L ST,South Boston,MA,2127
L STREET DINER,Aob Corp,Aob Corp,L Street Diner,22832,2012-02-14T12:43:31Z,2021-12-31T23:59:00Z,Active,FT,Eating & Drinking w/ Take Out,HE_Filed,2020-12-04T13:31:17Z,Floors  Walls and Ceilings-Cleanability (C),Pass,Clean floors  walls and ceiling where needed in the kitchen from visible food spills  stains and soils,108   L ST,South Boston,MA,2127
L STREET DINER,Aob Corp,Aob Corp,L Street Diner,22832,2012-02-14T12:43:31Z,2021-12-31T23:59:00Z,Active,FT,Eating & Drinking w/ Take Out,HE_Filed,2020-12-04T13:31:17Z,Floor and Wall Junctures  Coved  and Enclosed or Sealed (C),Fail,several areas of the kitchen walls and floor are still in disrepair address,108   L ST,South Boston,MA,2127
L STREET DINER,Aob Corp,Aob Corp,L Street Diner,22832,2012-02-14T12:43:31Z,2021-12-31T23:59:00Z,Active,FT,Eating & Drinking w/ Take Out,HE_Filed,2020-12-04T13:31:17Z,Handwashing Signage  (C),Pass,Clearly identify all hand sinks scattered throughout the facility,108   L ST,South Boston,MA,2127
L STREET DINER,Aob Corp,Aob Corp,L Street Diner,22832,2012-02-14T12:43:31Z,2021-12-31T23:59:00Z,Active,FT,Eating & Drinking w/ Take Out,HE_Filed,2020-12-04T13:31:17Z,Maintaining Premises  Unnecessary Items and Litter (C),Pass,Remove all broken equipment and loose debris not affiliated with the restaurant to reduce potential contamination,108   L ST,South Boston,MA,2127
L STREET DINER,Aob Corp,Aob Corp,L Street Diner,22832,2012-02-14T12:43:31Z,2021-12-31T23:59:00Z,Active,FT,Eating & Drinking w/ Take Out,HE_Filed,2020-12-04T13:31:17Z,Cleaning of Plumbing Fixtures (C),Pass,Clean all water and gas pipes inside the fryolators and underneath all the sinks from grease and grime,108   L ST,South Boston,MA,2127
L STREET TAVERN,Woods,Woods,John,19279,2012-02-15T13:43:35Z,2020-12-31T23:59:00Z,Active,FS,Eating & Drinking,HE_Filed,2021-03-05T15:32:24Z,Warewashing Equipment  Cleaning Frequency (C),Fail,Clean exterior of warewashing machine from visible stains and soils,195   L ST,South Boston,MA,2127
L STREET TAVERN,Woods,Woods,John,19279,2012-02-15T13:43:35Z,2020-12-31T23:59:00Z,Active,FS,Eating & Drinking,HE_Filed,2021-03-05T15:32:24Z,Handwashing Signage  (C),Fail,"Ensure all hand sinks are clearly identified with a sign stating "" hand washing only""",195   L ST,South Boston,MA,2127
LAND OF PIZZA,,Kyriaris,Vasilios,31878,2012-02-08T14:57:59Z,2020-12-31T23:59:00Z,Active,FT,Eating & Drinking w/ Take Out,HE_Filed,2020-12-09T14:57:59Z,Effectiveness-Hair Restraints (C),Fail,Ensure all employees are wearing hair restraints while working with foods,445 W BROADWAY,SOUTH BOSTON,MA,2127
LAND OF PIZZA,,Kyriaris,Vasilios,31878,2012-02-08T14:57:59Z,2020-12-31T23:59:00Z,Active,FT,Eating & Drinking w/ Take Out,HE_Filed,2020-12-09T14:57:59Z,Wiping Cloths  Use Limitation (C),Fail,Set up the two seperate sanitizing stations as discussed  one for raw and one for ready to eat,445 W BROADWAY,SOUTH BOSTON,MA,2127
LAND OF PIZZA,,Kyriaris,Vasilios,31878,2012-02-08T14:57:59Z,2020-12-31T23:59:00Z,Active,FT,Eating & Drinking w/ Take Out,HE_Filed,2020-12-09T14:57:59Z,Nonfood-Contact Surfaces (C),Fail,Clean inside and outside of all cooking equipment  inside and outside of all refrigeration units from visible food spills  stains and soils,445 W BROADWAY,SOUTH BOSTON,MA,2127
LARRY J'S BBQ CAFE,,Jimerson Enterprises L L C,,80130,2013-01-07T09:54:42Z,2020-12-31T23:59:00Z,Active,FT,Eating & Drinking w/ Take Out,HE_Filed,2020-10-06T14:48:28Z,Ventilation Hood Systems  Filters (C),Fail,Clean vents in the hood above the chargrill from heavy carbon build up,600   D ST,South Boston,MA,2210
LARRY J'S BBQ CAFE,,Jimerson Enterprises L L C,,80130,2013-01-07T09:54:42Z,2020-12-31T23:59:00Z,Active,FT,Eating & Drinking w/ Take Out,HE_Filed,2020-10-06T14:48:28Z,Nonfood Contact Surfaces (C),Fail,Clean exterior of all cooking equipment / inside and outside of all refrigeration units   exterior of all bulk food storage bins from visible food splashes  spills  stains and soils,600   D ST,South Boston,MA,2210
LARRY J'S BBQ CAFE,,Jimerson Enterprises L L C,,80130,2013-01-07T09:54:42Z,2020-12-31T23:59:00Z,Active,FT,Eating & Drinking w/ Take Out,HE_Filed,2020-10-06T14:48:28Z,Drying Mops (C),Fail,Keep all in use mops and brooms elevated off the floor a minimum os six inches during storage to reduce potential rodent activity,600   D ST,South Boston,MA,2210
LEE CHEN'S,,Zhao,Zhen,333798,2017-06-21T10:02:29Z,2020-12-31T23:59:00Z,Active,FT,Eating & Drinking w/ Take Out,HE_NotReq,2020-11-04T16:36:38Z,,Pass,,475 W Broadway,South Boston,MA,2127
LINCOLN TAVERN,,Conlon,Michael,79301,2012-09-27T11:07:10Z,2021-12-31T23:59:00Z,Active,FS,Eating & Drinking,HE_Filed,2021-02-24T13:11:15Z,Linens and Napkins  Use Limitations (C),Fail,Discontinue pre setting table aprons and cloth napkins in the back room -  set up as needed according to business hours of operation to reduce potential contamination,425 W Broadway,South Boston,MA,2127
LINCOLN TAVERN,,Conlon,Michael,79301,2012-09-27T11:07:10Z,2021-12-31T23:59:00Z,Active,FS,Eating & Drinking,HE_Filed,2021-02-24T13:11:15Z,Preset Tableware (C),Fail,Discontinue any pre set tableware - set up/ provide utensils and condiments as needed during hours of operation to reduce potential contamination,425 W Broadway,South Boston,MA,2127
LLANERA SUP. MARKET,Guerrero Franklin,Mary De Jesus,,28709,2011-12-12T12:06:59Z,2021-12-31T23:59:00Z,Active,RF,Retail Food,HE_Pass,2021-03-03T10:45:13Z,Handling Prohibition-Animals (Pf),Pass,PIC stated there is a cat on premises. Remove. Only service animals are allowed by code.,260 E Eighth ST,South Boston,MA,2127
LOCAL 149,Tower James M Ts,Hamachi L L C,,74840,2011-12-19T13:06:22Z,2021-12-31T23:59:00Z,Active,FS,Eating & Drinking,HE_Filed,2020-08-07T13:17:36Z,Packaged and Unpackaged Food-Separation  Packaging  and Segregation  (C),Pass,Ensure all foods are elevated off the floor during storage as discussed,143   P ST,South Boston,MA,2127
LOCAL 149,Tower James M Ts,Hamachi L L C,,74840,2011-12-19T13:06:22Z,2021-12-31T23:59:00Z,Active,FS,Eating & Drinking,HE_Filed,2020-08-07T13:17:36Z,Nonfood-Contact Surfaces (C),Fail,Resurface the black shelving unit containing the glasses being stored in the kitchen / front counter area - visible exposed wood,143   P ST,South Boston,MA,2127
LOCAL 149,Tower James M Ts,Hamachi L L C,,74840,2011-12-19T13:06:22Z,2021-12-31T23:59:00Z,Active,FS,Eating & Drinking,HE_Filed,2020-08-07T13:17:36Z,Nonfood-Contact Surfaces (C),Pass,Clean inside and outside of all refrigeration / freezer units   all cooking equipment  exterior of all bulk food storage bins from visible  food spills   stains and soils,143   P ST,South Boston,MA,2127
LOCAL 149,Tower James M Ts,Hamachi L L C,,74840,2011-12-19T13:06:22Z,2021-12-31T23:59:00Z,Active,FS,Eating & Drinking,HE_Filed,2020-08-07T13:17:36Z,Storage of Soiled Linens (C),Pass,Discontinue soiled linen being discarded directly on the basement floor to reduce potential contamination,143   P ST,South Boston,MA,2127
LOCAL 149,Tower James M Ts,Hamachi L L C,,74840,2011-12-19T13:06:22Z,2021-12-31T23:59:00Z,Active,FS,Eating & Drinking,HE_Filed,2020-08-07T13:17:36Z,Standards-Quality (P),Pass,Interior of the ice machine needs to be cleaned and sanitized prioperly from an accumulation of  visible soils  especially around the interior of the lid and interior filter,143   P ST,South Boston,MA,2127
LOCAL 149,Tower James M Ts,Hamachi L L C,,74840,2011-12-19T13:06:22Z,2021-12-31T23:59:00Z,Active,FS,Eating & Drinking,HE_Filed,2020-08-07T13:17:36Z,Grease Trap(C),Pass,Clean to remove soils,143   P ST,South Boston,MA,2127
LOCAL 149,Tower James M Ts,Hamachi L L C,,74840,2011-12-19T13:06:22Z,2021-12-31T23:59:00Z,Active,FS,Eating & Drinking,HE_Filed,2020-08-07T13:17:36Z,Outside Receptacles (C),Pass,Clean all trash receptacles to remive obnoxious odors,143   P ST,South Boston,MA,2127
LOCAL 149,Tower James M Ts,Hamachi L L C,,74840,2011-12-19T13:06:22Z,2021-12-31T23:59:00Z,Active,FS,Eating & Drinking,HE_Filed,2020-08-07T13:17:36Z,Floors  Walls and Ceilings-Cleanability (C),Pass,Clean floors throughput the kitchen  underneath nall the cooking equipment  floors in the basement and storage areas including the walk-in units from all visible food spills  stains and soils Clean walls behind the cooking line  clean behind the ware washing machine  as well as all walls in the basment from visible food soils,143   P ST,South Boston,MA,2127
LOCAL 149,Tower James M Ts,Hamachi L L C,,74840,2011-12-19T13:06:22Z,2021-12-31T23:59:00Z,Active,FS,Eating & Drinking,HE_Filed,2020-08-07T13:17:36Z,Wall and Ceiling Coverings and Coatings (C),Fail,There is still some concerns with the lower portion of some of the walls in the kitchen  continue repairs where needed,143   P ST,South Boston,MA,2127
LOCAL 149,Tower James M Ts,Hamachi L L C,,74840,2011-12-19T13:06:22Z,2021-12-31T23:59:00Z,Active,FS,Eating & Drinking,HE_Filed,2020-08-07T13:17:36Z,Hand Drying Provision (Pf),Pass,Ensure all hand sinks located throughout the restaurant including behind the bar are properly stocked with paper towels  soapo and ampke hot water,143   P ST,South Boston,MA,2127
LOCAL 149,Tower James M Ts,Hamachi L L C,,74840,2011-12-19T13:06:22Z,2021-12-31T23:59:00Z,Active,FS,Eating & Drinking,HE_Filed,2020-08-07T13:17:36Z,Handwashing Signage  (C),Pass,Properly identify all hand sinks,143   P ST,South Boston,MA,2127
LOCAL 149,Tower James M Ts,Hamachi L L C,,74840,2011-12-19T13:06:22Z,2021-12-31T23:59:00Z,Active,FS,Eating & Drinking,HE_Filed,2020-08-07T13:17:36Z,Mechanical-Ventilation (C),Pass,Address the ventilatuon issue in the basement- stagnant air and obnoxious odors in the basement need to be addressed properly. Large soiled fan is not a proper way to ventilate the area,143   P ST,South Boston,MA,2127
LOCAL 149,Tower James M Ts,Hamachi L L C,,74840,2011-12-19T13:06:22Z,2021-12-31T23:59:00Z,Active,FS,Eating & Drinking,HE_Filed,2020-08-07T13:17:36Z,Cleaning of Plumbing Fixtures (C),Pass,Clean all pipes underneath the sinks and hand sinks from visible debris anfd soils,143   P ST,South Boston,MA,2127
LOCO TAQUERIA & OYSTER BAR,Chew Peter,Eric Aulenback,Michael Colon,134050,2015-01-21T10:58:06Z,2021-12-31T23:59:00Z,Active,FS,Eating & Drinking,HE_Pass,2021-03-13T19:57:15Z,,Pass,,412 W Broadway,South Boston,MA,2127
LOLA 42,,Coelho,Marco,308743,2017-05-11T10:52:22Z,2021-12-31T23:59:00Z,Active,FS,Eating & Drinking,HE_Pass,2020-11-03T15:26:52Z,Food Storage-Preventing Contamination from the Premises (C),Pass,Storing some uncovered produce underneath a prep table - either relocate or cover as discussed,20   Liberty DR,South Boston,MA,2210
LOLA 42,,Coelho,Marco,308743,2017-05-11T10:52:22Z,2021-12-31T23:59:00Z,Active,FS,Eating & Drinking,HE_Pass,2020-11-03T15:26:52Z,Nonfood-Contact Surfaces (C),Pass,Missing a barrier on the left side of the hand sink located directly beside the meat slicer  address as discussed,20   Liberty DR,South Boston,MA,2210
LOLA 42,,Coelho,Marco,308743,2017-05-11T10:52:22Z,2021-12-31T23:59:00Z,Active,FS,Eating & Drinking,HE_Pass,2020-11-03T15:26:52Z,Cutting Surfaces (C),Pass,Clean all cutting boards to remove all visible soils and lacerations,20   Liberty DR,South Boston,MA,2210
LOLA 42,,Coelho,Marco,308743,2017-05-11T10:52:22Z,2021-12-31T23:59:00Z,Active,FS,Eating & Drinking,HE_Pass,2020-11-03T15:26:52Z,(B) and (C) Equipment  Food-Contact Surfaces  Nonfood-Contact Surfaces  and Utensils (C),Pass,Relocate the ice bin containers with handles scattered in  between the shelving unit and ice machine - store segragated in a clean area as discussed,20   Liberty DR,South Boston,MA,2210
LOLA 42,,Coelho,Marco,308743,2017-05-11T10:52:22Z,2021-12-31T23:59:00Z,Active,FS,Eating & Drinking,HE_Pass,2020-11-03T15:26:52Z,Preset Tableware (C),Pass,Remove individually wrapped utensils out on the dining tables during the current COVID-19 crisis,20   Liberty DR,South Boston,MA,2210
LOLA 42,,Coelho,Marco,308743,2017-05-11T10:52:22Z,2021-12-31T23:59:00Z,Active,FS,Eating & Drinking,HE_Pass,2020-11-03T15:26:52Z,Service Sink (C),Pass,Remove articles inside the single door mop sink and keep clear so the soiled mop and bucket cab be stored properly  addressed immediately,20   Liberty DR,South Boston,MA,2210
LOLA 42,,Coelho,Marco,308743,2017-05-11T10:52:22Z,2021-12-31T23:59:00Z,Active,FS,Eating & Drinking,HE_Pass,2020-11-03T15:26:52Z,Floors  Walls and Ceilings-Cleanability (C),Pass,Clean floors throughout the kitchen from all visible food spills  stains amd soils,20   Liberty DR,South Boston,MA,2210
LOLA 42,,Coelho,Marco,308743,2017-05-11T10:52:22Z,2021-12-31T23:59:00Z,Active,FS,Eating & Drinking,HE_Pass,2020-11-03T15:26:52Z,Floor Covering  Mats and Duckboards (C),Pass,Remove compromised black matts on the floor in front of the cooking line where chef expedites plated meals from,20   Liberty DR,South Boston,MA,2210
LOLA 42,,Coelho,Marco,308743,2017-05-11T10:52:22Z,2021-12-31T23:59:00Z,Active,FS,Eating & Drinking,HE_Pass,2020-11-03T15:26:52Z,Using Dressing Rooms and Lockers (C),Pass,Ensure locker rooms are being utilized properly - keep all personal items out of the kitchen / food prep areas and store as discussed,20   Liberty DR,South Boston,MA,2210
LOLA 42,,Coelho,Marco,308743,2017-05-11T10:52:22Z,2021-12-31T23:59:00Z,Active,FS,Eating & Drinking,HE_Pass,2020-11-03T15:26:52Z,Maintaining Premises  Unnecessary Items and Litter (C),Pass,Ensure all CO-2 tanks are properly anchored in the kitchen as discussed,20   Liberty DR,South Boston,MA,2210
LOLITA COCINA & TEQUILA BAR,Boston Hsr South Boston Llc,Coje Management,Mark S. Malatesta,199400,2017-10-13T09:54:35Z,2020-12-31T23:59:00Z,Active,FS,Eating & Drinking,HE_Filed,2020-10-09T11:20:13Z,Maintaining Premises  Unnecessary Items and Litter (C),Fail,Clean to remove tools and loose debris unaffiliated with the food service area of the kitchen and store segragated as discussed,253   Summer ST,Boston,MA,2127
LULU GREEN CAFE  BAKERY AND JUICE BAR,,Lattouf,Mary,406426,2020-01-22T08:59:06Z,2021-12-31T23:59:00Z,Active,FT,Eating & Drinking w/ Take Out,HE_Pass,2021-03-23T12:34:54Z,,Pass,,246 W Broadway,South Boston,MA,2127
MOLLY'S FARMHOUSE COFFEE,Kelley John T,Hardin,Gary,352660,2017-12-22T09:20:06Z,2021-12-31T23:59:00Z,Active,FT,Eating & Drinking w/ Take Out,HE_Pass,2021-04-23T10:18:43Z,,Pass,,16  Preble ST,South Boston,MA,2127
MC GOO'S PIZZA,,Hajdinaj,Bashkim,161237,2016-01-27T10:28:29Z,2021-12-31T23:59:00Z,Active,FT,Eating & Drinking w/ Take Out,HE_Filed,2020-10-01T11:02:39Z,Wiping Cloths  Use Limitation (C),Pass,Keep all wiping cloths in a sanitizing solution when not in use.,479 W Broadway,South Boston,MA,2127
MC GOO'S PIZZA,,Hajdinaj,Bashkim,161237,2016-01-27T10:28:29Z,2021-12-31T23:59:00Z,Active,FT,Eating & Drinking w/ Take Out,HE_Filed,2020-10-01T11:02:39Z,Nonfood Contact Surfaces (C),Fail,Resurface rusted and compromised bottom shelf of the stainless steel prep table by the front counter,479 W Broadway,South Boston,MA,2127
MC GOO'S PIZZA,,Hajdinaj,Bashkim,161237,2016-01-27T10:28:29Z,2021-12-31T23:59:00Z,Active,FT,Eating & Drinking w/ Take Out,HE_Filed,2020-10-01T11:02:39Z,Floors  Walls and Ceilings-Cleanability (C),Pass,There are still some soiled areas of the floors and walls that need to be addressed. Clean to remove all remaining soils around floors and walls  of the  in place equipment,479 W Broadway,South Boston,MA,2127
MC GOO'S PIZZA,,Hajdinaj,Bashkim,161237,2016-01-27T10:28:29Z,2021-12-31T23:59:00Z,Active,FT,Eating & Drinking w/ Take Out,HE_Filed,2020-10-01T11:02:39Z,Walls and Ceilings  Attachments (C),Fail,Front door is still broken PIC showed me a new GLASS door that has not been installed as of yet  address immediately,479 W Broadway,South Boston,MA,2127
MOKO,,Lee,Joy,353778,2018-01-11T08:30:23Z,2021-12-31T23:59:00Z,Active,FS,Eating & Drinking,HE_Filed,2020-08-28T13:52:16Z,Floors  Walls and Ceilings-Cleanability (C),Fail,Clean floor behind the bar as well as in the kitchen prep area from all visible food spills  stains and soils,674 E Broadway,South Boston,MA,2127
MOKO,,Lee,Joy,353778,2018-01-11T08:30:23Z,2021-12-31T23:59:00Z,Active,FS,Eating & Drinking,HE_Filed,2020-08-28T13:52:16Z,Handwashing Signage  (C),Fail,Ensure all hand sinks are properly identified as discussed,674 E Broadway,South Boston,MA,2127
MOKO,,Lee,Joy,353778,2018-01-11T08:30:23Z,2021-12-31T23:59:00Z,Active,FS,Eating & Drinking,HE_Filed,2020-08-28T13:52:16Z,Maintaining Premises  Unnecessary Items and Litter (C),Fail,Remove all broken and unused equipment in the front of the restaurant,674 E Broadway,South Boston,MA,2127
MOLLY'S BEACHSIDE,George A. Silva,Nahas,Mohamed,335235,2017-08-29T15:29:29Z,2021-12-31T23:59:00Z,Active,FT,Eating & Drinking w/ Take Out,HE_Pass,2020-06-30T15:30:26Z,(A) Certified Food Protection Manager (C),Pass,No allergen awareness verbiage on menu boards  address,165  William J Day BL,South Boston,MA,2127
MOLLY'S BEACHSIDE,George A. Silva,Nahas,Mohamed,335235,2017-08-29T15:29:29Z,2021-12-31T23:59:00Z,Active,FT,Eating & Drinking w/ Take Out,HE_Pass,2020-06-30T15:30:26Z,Consumption of Animal Foods that are Raw  Undercooked  or Not Otherwise Processed to Eliminate Pathogens (Pf),Pass,No consumer abvisory  disclosure and reminder for any food items offered undercooked on the menu  address immediately,165  William J Day BL,South Boston,MA,2127
MOONSHINE 152,,Mei,Asia,138482,2015-02-13T14:05:20Z,2021-12-31T23:59:00Z,Active,FS,Eating & Drinking,HE_Pass,2020-11-04T19:47:59Z,,Pass,,152  Dorchester AVE,South Boston,MA,2127
MY DINER,,Bashllari,Arben,343399,2018-02-14T09:45:08Z,2021-12-31T23:59:00Z,Active,FS,Eating & Drinking,HE_Pass,2021-02-17T11:29:30Z,Consumption of Animal Foods that are Raw  Undercooked  or Not Otherwise Processed to Eliminate Pathogens (Pf),Pass,Disclosure / reminder is incomplete  ensure all foods offered under cooked are identified correctly as discussed,455 E First ST,South Boston,MA,2127
MY DINER,,Bashllari,Arben,343399,2018-02-14T09:45:08Z,2021-12-31T23:59:00Z,Active,FS,Eating & Drinking,HE_Pass,2021-02-17T11:29:30Z,Nonfood-Contact Surfaces (C),Pass,Clean inside and outside of all refrigeration units   freezer units  exterior of all cooking equipment  inside the microwave and exterior of all bulk food containers from food spills  stains and soils,455 E First ST,South Boston,MA,2127
MY DINER,,Bashllari,Arben,343399,2018-02-14T09:45:08Z,2021-12-31T23:59:00Z,Active,FS,Eating & Drinking,HE_Pass,2021-02-17T11:29:30Z,Ventilation Hood Systems  Filters (C),Pass,Clean filtersin the hood from all visible soils,455 E First ST,South Boston,MA,2127
MY DINER,,Bashllari,Arben,343399,2018-02-14T09:45:08Z,2021-12-31T23:59:00Z,Active,FS,Eating & Drinking,HE_Pass,2021-02-17T11:29:30Z,Clean Linens (C),Pass,Relocate the clean aprons stored beside the soiuled ones - segragate completely as discussed,455 E First ST,South Boston,MA,2127
MY DINER,,Bashllari,Arben,343399,2018-02-14T09:45:08Z,2021-12-31T23:59:00Z,Active,FS,Eating & Drinking,HE_Pass,2021-02-17T11:29:30Z,Preset Tableware (C),Pass,Discontinue pre setting tables for lunch / breakfast during the current COVID-19 crisis,455 E First ST,South Boston,MA,2127
MY DINER,,Bashllari,Arben,343399,2018-02-14T09:45:08Z,2021-12-31T23:59:00Z,Active,FS,Eating & Drinking,HE_Pass,2021-02-17T11:29:30Z,Grease Trap(C),Pass,Clean to remove all grease deposits and grime,455 E First ST,South Boston,MA,2127
MY DINER,,Bashllari,Arben,343399,2018-02-14T09:45:08Z,2021-12-31T23:59:00Z,Active,FS,Eating & Drinking,HE_Pass,2021-02-17T11:29:30Z,Floors  Walls and Ceilings-Cleanability (C),Pass,Cleran walls behind the cooking line  floors underneath all cooking equipment from foods spills  stains and soils,455 E First ST,South Boston,MA,2127
MY DINER,,Bashllari,Arben,343399,2018-02-14T09:45:08Z,2021-12-31T23:59:00Z,Active,FS,Eating & Drinking,HE_Pass,2021-02-17T11:29:30Z,,Pass,No 2021 health permit on site address  address,455 E First ST,South Boston,MA,2127
OLGA'S KAFE,,Markos,Olga,410341,2021-02-12T10:42:48Z,2021-12-31T23:59:00Z,Active,FS,Eating & Drinking,HE_Pass,2021-03-23T11:24:45Z,,Pass,,206 W Broadway,South Boston,MA,2127
OLYMPIC HOUSE OF PIZZA,Bolger Julilan,Joca,Agron,28456,2012-03-27T13:12:07Z,2021-12-31T23:59:00Z,Active,FT,Eating & Drinking w/ Take Out,HE_Pass,2021-02-10T15:34:48Z,Thawing (C),Pass,Thawing out shaved steak in stagnant water  ensure water is running and not able to collect into pooling water,655   EAST BROADWAY,South Boston,Ma,2127
OLYMPIC HOUSE OF PIZZA,Bolger Julilan,Joca,Agron,28456,2012-03-27T13:12:07Z,2021-12-31T23:59:00Z,Active,FT,Eating & Drinking w/ Take Out,HE_Pass,2021-02-10T15:34:48Z,Food Labels (C),Pass,label to identify all bulk food containers as discussed,655   EAST BROADWAY,South Boston,Ma,2127
OLYMPIC HOUSE OF PIZZA,Bolger Julilan,Joca,Agron,28456,2012-03-27T13:12:07Z,2021-12-31T23:59:00Z,Active,FT,Eating & Drinking w/ Take Out,HE_Pass,2021-02-10T15:34:48Z,CIP Equipment (C),Pass,Clean the exterior of the pizza ovensd as well as the stand up dough mixer from all visible soils,655   EAST BROADWAY,South Boston,Ma,2127
OLYMPIC HOUSE OF PIZZA,Bolger Julilan,Joca,Agron,28456,2012-03-27T13:12:07Z,2021-12-31T23:59:00Z,Active,FT,Eating & Drinking w/ Take Out,HE_Pass,2021-02-10T15:34:48Z,Ventilation Hood Systems  Filters (C),Pass,Clean vents in the hood system above the char grill from a build up of visible soils,655   EAST BROADWAY,South Boston,Ma,2127
OLYMPIC HOUSE OF PIZZA,Bolger Julilan,Joca,Agron,28456,2012-03-27T13:12:07Z,2021-12-31T23:59:00Z,Active,FT,Eating & Drinking w/ Take Out,HE_Pass,2021-02-10T15:34:48Z,Grease Trap(C),Pass,Clean grease trap from visible soils,655   EAST BROADWAY,South Boston,Ma,2127
OLYMPIC HOUSE OF PIZZA,Bolger Julilan,Joca,Agron,28456,2012-03-27T13:12:07Z,2021-12-31T23:59:00Z,Active,FT,Eating & Drinking w/ Take Out,HE_Pass,2021-02-10T15:34:48Z,Handwashing Signage  (C),Pass,Ensure all hand sinks are clearly identied as discussed throughout the facility,655   EAST BROADWAY,South Boston,Ma,2127
OLYMPIC HOUSE OF PIZZA,Bolger Julilan,Joca,Agron,28456,2012-03-27T13:12:07Z,2021-12-31T23:59:00Z,Active,FT,Eating & Drinking w/ Take Out,HE_Pass,2021-02-10T15:34:48Z,Drying Mops (C),Pass,Ensure soiled in use mops are stored elevated off the floor a minimum of six inches when drying,655   EAST BROADWAY,South Boston,Ma,2127
ON THE EDGE NUTRITION,,Baez,Yeison,420956,2020-02-10T08:21:21Z,2021-12-31T23:59:00Z,Active,FT,Eating & Drinking w/ Take Out,HE_Pass,2020-06-26T15:40:59Z,,Pass,,283  Old Colony AVE,South Boston,MA,2127
ON THE EDGE NUTRITION,,Baez,Yeison,420956,2020-02-10T08:21:21Z,2021-12-31T23:59:00Z,Active,FT,Eating & Drinking w/ Take Out,HE_Pass,2021-02-26T15:42:01Z,,Pass,,283  Old Colony AVE,South Boston,MA,2127
OTTO PIZZA,,Ryan,Sean,414790,2020-02-26T15:36:59Z,2021-12-31T23:59:00Z,Active,FS,Eating & Drinking,HE_Pass,2021-02-08T14:52:20Z,,Pass,,416 W Broadway,South Boston,MA,2127
PAN ASIA RESTAURANT,Wong Shui-mei,Mai,Jia Quan,367136,2018-06-27T15:39:15Z,2021-12-31T23:59:00Z,Active,FT,Eating & Drinking w/ Take Out,HE_Pass,2021-03-11T14:55:52Z,Washing Fruits and Vegetables (C),Pass,Identify prep sink and only use accordingly as discussed,720 E Broadway,South Boston,MA,2127
PAN ASIA RESTAURANT,Wong Shui-mei,Mai,Jia Quan,367136,2018-06-27T15:39:15Z,2021-12-31T23:59:00Z,Active,FT,Eating & Drinking w/ Take Out,HE_Pass,2021-03-11T14:55:52Z,Nonfood-Contact Surfaces (C),Pass,Remove all soiled cardboard being used to line the shelves and floors,720 E Broadway,South Boston,MA,2127
PAN ASIA RESTAURANT,Wong Shui-mei,Mai,Jia Quan,367136,2018-06-27T15:39:15Z,2021-12-31T23:59:00Z,Active,FT,Eating & Drinking w/ Take Out,HE_Pass,2021-03-11T14:55:52Z,Service Sink (C),Pass,No enclosed service sink location for soiled mops and bucket  address,720 E Broadway,South Boston,MA,2127
PERKIN'S SQ DELI,One 06 Dorchester St Llc,Fallon,James,18439,2011-12-19T10:37:47Z,2021-12-31T23:59:00Z,Active,FT,Eating & Drinking w/ Take Out,HE_Filed,2021-03-11T13:11:37Z,Preventing Contamination from Hands (C),Fail,Ensure no kitchen equipment or trash receptacles are partially blocking the hand sinks in food prep / service locations to assist in hindering staff from washing their hands while working with coffee and foods,106   Dorchester ST,South Boston,MA,2127
PERKIN'S SQ DELI,One 06 Dorchester St Llc,Fallon,James,18439,2011-12-19T10:37:47Z,2021-12-31T23:59:00Z,Active,FT,Eating & Drinking w/ Take Out,HE_Filed,2021-03-11T13:11:37Z,Wall and Ceiling Coverings and Coatings (C),Fail,Clean vents in the ceiling above the three bay sink from dust and debris,106   Dorchester ST,South Boston,MA,2127
PERKIN'S SQ DELI,One 06 Dorchester St Llc,Fallon,James,18439,2011-12-19T10:37:47Z,2021-12-31T23:59:00Z,Active,FT,Eating & Drinking w/ Take Out,HE_Filed,2021-03-11T13:11:37Z,Handwashing Signage  (C),Fail,"Ensure all hand sinks are clearly and properly identified as such "" HAND WASHING ONLY""",106   Dorchester ST,South Boston,MA,2127
PUBLICO,R & K Inc,Bougas,Theo,314698,2017-03-10T08:29:40Z,2021-12-31T23:59:00Z,Active,FS,Eating & Drinking,HE_Filed,2021-03-12T15:33:35Z,Food Labels (C),Fail,Clearly label tomproperly identify all clear plastic spray bottles scattered throughout the restaurant / bar as well as all bulk food containers,11   Dorchester ST,South Boston,MA,2127
PUBLICO,R & K Inc,Bougas,Theo,314698,2017-03-10T08:29:40Z,2021-12-31T23:59:00Z,Active,FS,Eating & Drinking,HE_Filed,2021-03-12T15:33:35Z,(B) and (C) Equipment  Food-Contact Surfaces  Nonfood-Contact Surfaces  and Utensils (C),Fail,Discontinue the use of milk crates to use as food containers in the kitche - use as discussed during inspection,11   Dorchester ST,South Boston,MA,2127
PUBLICO,R & K Inc,Bougas,Theo,314698,2017-03-10T08:29:40Z,2021-12-31T23:59:00Z,Active,FS,Eating & Drinking,HE_Filed,2021-03-12T15:33:35Z,Handwashing Signage  (C),Fail,"Ensure all hand sinks are properly identied as such "" HAND WASHING ONLY """,11   Dorchester ST,South Boston,MA,2127
RED LINE PIZZA AND GRILL,,Aya Pizza L L C,,77211,2012-03-22T09:22:41Z,2020-12-31T23:59:00Z,Active,FT,Eating & Drinking w/ Take Out,HE_Filed,2021-03-22T14:38:11Z,Ventilation Hood Systems  Filters (C),Pass,Replace missing filter on the left side of the hood,582  Dorchester AVE,South Boston,MA,2127
RED LINE PIZZA AND GRILL,,Aya Pizza L L C,,77211,2012-03-22T09:22:41Z,2020-12-31T23:59:00Z,Active,FT,Eating & Drinking w/ Take Out,HE_Filed,2021-03-22T14:38:11Z,Outside Receptacles (C),Fail,Clean to remove all loose trash and debris along the side of the building past the dumpster,582  Dorchester AVE,South Boston,MA,2127
RED LINE PIZZA AND GRILL,,Aya Pizza L L C,,77211,2012-03-22T09:22:41Z,2020-12-31T23:59:00Z,Active,FT,Eating & Drinking w/ Take Out,HE_Filed,2021-03-22T14:38:11Z,Wall and Ceiling Coverings and Coatings (C),Pass,Clean all light shields throughout the store  especially by the front counter from visible soils and what appears to be possibly dead insect Replace broken ceiling tiles where needed,582  Dorchester AVE,South Boston,MA,2127
RONDO'S SUB SHOP,Koufos Evangelos,Koufos,Evangelos,18846,2012-02-10T11:20:33Z,2021-12-31T23:59:00Z,Active,FT,Eating & Drinking w/ Take Out,HE_Filed,2020-12-03T14:39:01Z,Packaged and Unpackaged Food-Separation  Packaging  and Segregation  (C),Fail,Ensure all foods are elevated off the floor a minimum of six inches during storage incliding chips and soda,134 W Broadway,South Boston,MA,2127
ROSA MEXICANO,,Rosa Mexicano Company,,77917,2012-05-15T09:28:51Z,2021-12-31T23:59:00Z,Active,FS,Eating & Drinking,HE_Filed,2020-11-16T11:50:25Z,Handwashing Signage  (C),Fail,"Ensure all hand sinks are properly labeled and identified stating "" Hand washing only "" as discussed during inspection.",155   SEAPORT BL,South Boston/,MA,2127
ROZA LYONS,,Jimothy Llc,Robert Fitzharris,158528,2016-05-24T08:37:07Z,2021-12-31T23:59:00Z,Active,FS,Eating & Drinking,HE_Filed,2021-02-23T15:11:31Z,Wiping Cloths  Use Limitation (C),Fail,Set up as discussed - one for ready to eat foods and one for raw foods,709 E Broadway,South Boston,MA,2127
ROZA LYONS,,Jimothy Llc,Robert Fitzharris,158528,2016-05-24T08:37:07Z,2021-12-31T23:59:00Z,Active,FS,Eating & Drinking,HE_Filed,2021-02-23T15:11:31Z,Food Labels (C),Fail,Label to properly identify all bulk food storage bins wher needed,709 E Broadway,South Boston,MA,2127
SEAPOINT RESTAURANT,Coleman Mannion  Pres. Bayside Club,Coleman Mannion Pres.,Bayside Club,20484,2012-03-28T11:36:02Z,2020-12-31T23:59:00Z,Active,FS,Eating & Drinking,HE_Pass,2021-04-08T15:25:53Z,Nonfood-Contact Surfaces (C),Pass,Clean behind and in between all cooking equipment on the line from visible grease and grime,367   EAST EIGHTH,SOUTH BOSTON,MA,2127
SEAPOINT RESTAURANT,Coleman Mannion  Pres. Bayside Club,Coleman Mannion Pres.,Bayside Club,20484,2012-03-28T11:36:02Z,2020-12-31T23:59:00Z,Active,FS,Eating & Drinking,HE_Pass,2021-04-08T15:25:53Z,Ventilation Hood Systems  Adequacy (C),Pass,Hood is loud  expired sticker - address as discussed,367   EAST EIGHTH,SOUTH BOSTON,MA,2127
SEAPOINT RESTAURANT,Coleman Mannion  Pres. Bayside Club,Coleman Mannion Pres.,Bayside Club,20484,2012-03-28T11:36:02Z,2020-12-31T23:59:00Z,Active,FS,Eating & Drinking,HE_Pass,2021-04-08T15:25:53Z,Wall and Ceiling Coverings and Coatings (C),Pass,Resurface all compromised areas of the walls of the kitchen where needed,367   EAST EIGHTH,SOUTH BOSTON,MA,2127
SHANNON'S TAVERN INC,Bowen John J,Bowen,John J,18482,2012-02-13T14:05:34Z,2021-12-31T23:59:00Z,Active,FS,Eating & Drinking,HE_Pass,2021-03-18T15:33:17Z,(A) Certified Food Protection Manager (C),Pass,Expired certificates on site   address,558   EAST THIRD,SOUTH BOSTON,MA,2127
SHANNON'S TAVERN INC,Bowen John J,Bowen,John J,18482,2012-02-13T14:05:34Z,2021-12-31T23:59:00Z,Active,FS,Eating & Drinking,HE_Pass,2021-03-18T15:33:17Z,Ice (P),Pass,Clean aound the lid of the ice machine as well as inside and around the perimeter from all visible soils,558   EAST THIRD,SOUTH BOSTON,MA,2127
SHANNON'S TAVERN INC,Bowen John J,Bowen,John J,18482,2012-02-13T14:05:34Z,2021-12-31T23:59:00Z,Active,FS,Eating & Drinking,HE_Pass,2021-03-18T15:33:17Z,Packaged and Unpackaged Food-Separation  Packaging  and Segregation  (C),Pass,Ensure all foods are elevated off the floor including the basement from all visible food spills  stains and soils,558   EAST THIRD,SOUTH BOSTON,MA,2127
SHANNON'S TAVERN INC,Bowen John J,Bowen,John J,18482,2012-02-13T14:05:34Z,2021-12-31T23:59:00Z,Active,FS,Eating & Drinking,HE_Pass,2021-03-18T15:33:17Z,Wiping Cloths  Use Limitation (C),Pass,,558   EAST THIRD,SOUTH BOSTON,MA,2127
SHANNON'S TAVERN INC,Bowen John J,Bowen,John J,18482,2012-02-13T14:05:34Z,2021-12-31T23:59:00Z,Active,FS,Eating & Drinking,HE_Pass,2021-03-18T15:33:17Z,Food Labels (C),Pass,Label all bulk food containers as dioscussed,558   EAST THIRD,SOUTH BOSTON,MA,2127
SHANNON'S TAVERN INC,Bowen John J,Bowen,John J,18482,2012-02-13T14:05:34Z,2021-12-31T23:59:00Z,Active,FS,Eating & Drinking,HE_Pass,2021-03-18T15:33:17Z,Sanitizing Solutions  Testing Devices (Pf),Pass,No chlorine test strips on site   address,558   EAST THIRD,SOUTH BOSTON,MA,2127
SHANNON'S TAVERN INC,Bowen John J,Bowen,John J,18482,2012-02-13T14:05:34Z,2021-12-31T23:59:00Z,Active,FS,Eating & Drinking,HE_Pass,2021-03-18T15:33:17Z,Nonfood Contact Surfaces (C),Pass,Clean counter tops   all shelving units under the bar  inside all efrigeration units from all visible soils,558   EAST THIRD,SOUTH BOSTON,MA,2127
SHANNON'S TAVERN INC,Bowen John J,Bowen,John J,18482,2012-02-13T14:05:34Z,2021-12-31T23:59:00Z,Active,FS,Eating & Drinking,HE_Pass,2021-03-18T15:33:17Z,Floors  Walls and Ceilings-Cleanability (C),Pass,Clean floors  walls and ceiling tiles where needed from visible food spills  stains and soils,558   EAST THIRD,SOUTH BOSTON,MA,2127
SHANNON'S TAVERN INC,Bowen John J,Bowen,John J,18482,2012-02-13T14:05:34Z,2021-12-31T23:59:00Z,Active,FS,Eating & Drinking,HE_Pass,2021-03-18T15:33:17Z,Walls and Ceilings  Attachments (C),Pass,Ensure there is a clean smooth durable and non absorbant surface above the ice machine as discussed,558   EAST THIRD,SOUTH BOSTON,MA,2127
SHANNON'S TAVERN INC,Bowen John J,Bowen,John J,18482,2012-02-13T14:05:34Z,2021-12-31T23:59:00Z,Active,FS,Eating & Drinking,HE_Pass,2021-03-18T15:33:17Z,Handwashing Signage  (C),Pass,Properly identify all hand sinks as discussed,558   EAST THIRD,SOUTH BOSTON,MA,2127
SHANNON'S TAVERN INC,Bowen John J,Bowen,John J,18482,2012-02-13T14:05:34Z,2021-12-31T23:59:00Z,Active,FS,Eating & Drinking,HE_Pass,2021-03-18T15:33:17Z,Maintaining Premises  Unnecessary Items and Litter (C),Pass,Clean to remove all loose debris  broken and / or unused equipment in the basement,558   EAST THIRD,SOUTH BOSTON,MA,2127
SHEA'S TAVERN,James & Robert Carney Shea's Tavern,James & Robert Carney,Shea's Tavern,20657,2011-12-13T11:45:21Z,2021-12-31T23:59:00Z,Active,FS,Eating & Drinking,HE_Filed,2021-03-10T15:41:00Z,Preventing Contamination from Hands (Pf),Pass,Ensure all hand sinks have paper towels and hand soap accessible as discussed during inspection,222 W Broadway,South Boston,MA,2127
SHEA'S TAVERN,James & Robert Carney Shea's Tavern,James & Robert Carney,Shea's Tavern,20657,2011-12-13T11:45:21Z,2021-12-31T23:59:00Z,Active,FS,Eating & Drinking,HE_Filed,2021-03-10T15:41:00Z,Packaged and Unpackaged Food-Separation  Packaging  and Segregation  (C),Fail,Ensure all cases of beverages are elevated off the floor a minimum of six inches during storage so floors can be cleaned properly,222 W Broadway,South Boston,MA,2127
SHEA'S TAVERN,James & Robert Carney Shea's Tavern,James & Robert Carney,Shea's Tavern,20657,2011-12-13T11:45:21Z,2021-12-31T23:59:00Z,Active,FS,Eating & Drinking,HE_Filed,2021-03-10T15:41:00Z,Nonfood-Contact Surfaces (C),Pass,Clean all shelving units behind the bar and under the bar from visible soils,222 W Broadway,South Boston,MA,2127
SHEA'S TAVERN,James & Robert Carney Shea's Tavern,James & Robert Carney,Shea's Tavern,20657,2011-12-13T11:45:21Z,2021-12-31T23:59:00Z,Active,FS,Eating & Drinking,HE_Filed,2021-03-10T15:41:00Z,Food-Contact Surfaces-Cleanability (Pf),Pass,Clean inside the ice machine  around the lid especially from all visible soils,222 W Broadway,South Boston,MA,2127
SHEA'S TAVERN,James & Robert Carney Shea's Tavern,James & Robert Carney,Shea's Tavern,20657,2011-12-13T11:45:21Z,2021-12-31T23:59:00Z,Active,FS,Eating & Drinking,HE_Filed,2021-03-10T15:41:00Z,CIP Equipment (C),Pass,Clean exterior of all sinks behind the bar  exterior of the ice machine from visible soils,222 W Broadway,South Boston,MA,2127
SHEA'S TAVERN,James & Robert Carney Shea's Tavern,James & Robert Carney,Shea's Tavern,20657,2011-12-13T11:45:21Z,2021-12-31T23:59:00Z,Active,FS,Eating & Drinking,HE_Filed,2021-03-10T15:41:00Z,Floors  Walls and Ceilings-Cleanability (C),Pass,Clean floors throughout the facility from all visible food spillls  stains and soils,222 W Broadway,South Boston,MA,2127
SHEA'S TAVERN,James & Robert Carney Shea's Tavern,James & Robert Carney,Shea's Tavern,20657,2011-12-13T11:45:21Z,2021-12-31T23:59:00Z,Active,FS,Eating & Drinking,HE_Filed,2021-03-10T15:41:00Z,Walls and Ceilings  Attachments (C),Pass,Clean blades of the ceiling fans from visible dust and debris,222 W Broadway,South Boston,MA,2127
SHEA'S TAVERN,James & Robert Carney Shea's Tavern,James & Robert Carney,Shea's Tavern,20657,2011-12-13T11:45:21Z,2021-12-31T23:59:00Z,Active,FS,Eating & Drinking,HE_Filed,2021-03-10T15:41:00Z,Handwashing Signage  (C),Pass,"Clearly identify each hand sink behind the bar as "" hand washing only "" as discussed during inspection",222 W Broadway,South Boston,MA,2127
SHENANAGANS BAR,,Nosmada,,20334,2012-01-06T11:26:59Z,2021-12-31T23:59:00Z,Active,FS,Eating & Drinking,HE_Pass,2021-02-16T14:04:50Z,Preventing Contamination from Hands (C),Pass,Ensure all hand sinks have an ample supply of paper towels and hand soap during all hours of operation,332 W BROADWAY,SOUTH BOSTON,MA,2127
SHENANAGANS BAR,,Nosmada,,20334,2012-01-06T11:26:59Z,2021-12-31T23:59:00Z,Active,FS,Eating & Drinking,HE_Pass,2021-02-16T14:04:50Z,Packaged and Unpackaged Food-Separation  Packaging  and Segregation  (C),Pass,Ensure all ready to eat foods are completely segragated from raw foods on the cooking line - current set up of raw poultry being stored directly beside fresh produce are too close   segragate and seperate to reduce potential contamination as discussed,332 W BROADWAY,SOUTH BOSTON,MA,2127
SHENANAGANS BAR,,Nosmada,,20334,2012-01-06T11:26:59Z,2021-12-31T23:59:00Z,Active,FS,Eating & Drinking,HE_Pass,2021-02-16T14:04:50Z,In-Use Utensils  Between-Use Storage (C),Pass,Spoons to dispense condiments being stored in stagnant water  store as discussed,332 W BROADWAY,SOUTH BOSTON,MA,2127
SHENANAGANS BAR,,Nosmada,,20334,2012-01-06T11:26:59Z,2021-12-31T23:59:00Z,Active,FS,Eating & Drinking,HE_Pass,2021-02-16T14:04:50Z,Food Labels (C),Pass,label all bulk food containers to properly identify the contents such as  - flour - salt - sugar ect.,332 W BROADWAY,SOUTH BOSTON,MA,2127
SHENANAGANS BAR,,Nosmada,,20334,2012-01-06T11:26:59Z,2021-12-31T23:59:00Z,Active,FS,Eating & Drinking,HE_Pass,2021-02-16T14:04:50Z,Consumption of Animal Foods that are Raw  Undercooked  or Not Otherwise Processed to Eliminate Pathogens (Pf),Pass,Ensure brunvh menu has the prooper disclosure / reminder as discussed during inspection,332 W BROADWAY,SOUTH BOSTON,MA,2127
SHENANAGANS BAR,,Nosmada,,20334,2012-01-06T11:26:59Z,2021-12-31T23:59:00Z,Active,FS,Eating & Drinking,HE_Pass,2021-02-16T14:04:50Z,CIP Equipment (C),Pass,Clean exterior of all cooking equipment on the line from visible food spills  stains and soils,332 W BROADWAY,SOUTH BOSTON,MA,2127
SHENANAGANS BAR,,Nosmada,,20334,2012-01-06T11:26:59Z,2021-12-31T23:59:00Z,Active,FS,Eating & Drinking,HE_Pass,2021-02-16T14:04:50Z,Ventilation Hood Systems  Filters (C),Pass,Clean vents in the hood above the char grill from visible soils,332 W BROADWAY,SOUTH BOSTON,MA,2127
SHENANAGANS BAR,,Nosmada,,20334,2012-01-06T11:26:59Z,2021-12-31T23:59:00Z,Active,FS,Eating & Drinking,HE_Pass,2021-02-16T14:04:50Z,Floors  Walls and Ceilings-Cleanability (C),Pass,Cleran floors and walls underneath all cooking equipmemnt on the cooking line  clean ceiling tiles where needed from all visible food spills  stains and soils,332 W BROADWAY,SOUTH BOSTON,MA,2127
SHENANAGANS BAR,,Nosmada,,20334,2012-01-06T11:26:59Z,2021-12-31T23:59:00Z,Active,FS,Eating & Drinking,HE_Pass,2021-02-16T14:04:50Z,Drying Mops (C),Pass,Keep in use mops elavated off the floor when not in use so soiled water is not spilling back on the floors,332 W BROADWAY,SOUTH BOSTON,MA,2127
SIDEWALK CAFE,,Kathleen Connolly,,22835,2012-03-27T13:06:45Z,2021-12-31T23:59:00Z,Active,FT,Eating & Drinking w/ Take Out,HE_FailExt,2021-02-16T11:53:23Z,Wiping Cloths  Use Limitation (C),Pass,Set up as discussed,764 E Fourth ST,South Boston,MA,2127
SIDEWALK CAFE,,Kathleen Connolly,,22835,2012-03-27T13:06:45Z,2021-12-31T23:59:00Z,Active,FT,Eating & Drinking w/ Take Out,HE_FailExt,2021-02-16T11:53:23Z,Consumption of Animal Foods that are Raw  Undercooked  or Not Otherwise Processed to Eliminate Pathogens (Pf),Pass,Missing the disclosure / reminder on the menu for under cooked eggs  address,764 E Fourth ST,South Boston,MA,2127
SIDEWALK CAFE,,Kathleen Connolly,,22835,2012-03-27T13:06:45Z,2021-12-31T23:59:00Z,Active,FT,Eating & Drinking w/ Take Out,HE_FailExt,2021-02-16T11:53:23Z,Sponges Use Limitation (C),Fail,Discontinue using absorbant sponges to clean food contact surfaces  o.k to clean floors - walls - ceilings,764 E Fourth ST,South Boston,MA,2127
SIDEWALK CAFE,,Kathleen Connolly,,22835,2012-03-27T13:06:45Z,2021-12-31T23:59:00Z,Active,FT,Eating & Drinking w/ Take Out,HE_FailExt,2021-02-16T11:53:23Z,Wood  Use Limitation (C),Pass,Discard absorbant wooden cutting boards for food contact cutting - ensure a hard wood [ maple ] or commercial cutting surfaces are being used,764 E Fourth ST,South Boston,MA,2127
SIDEWALK CAFE,,Kathleen Connolly,,22835,2012-03-27T13:06:45Z,2021-12-31T23:59:00Z,Active,FT,Eating & Drinking w/ Take Out,HE_FailExt,2021-02-16T11:53:23Z,Nonfood-Contact Surfaces (C),Pass,Clean inside and outside of all refrigeration and freezer units from visible food spills  stains and soils,764 E Fourth ST,South Boston,MA,2127
SIDEWALK CAFE,,Kathleen Connolly,,22835,2012-03-27T13:06:45Z,2021-12-31T23:59:00Z,Active,FT,Eating & Drinking w/ Take Out,HE_FailExt,2021-02-16T11:53:23Z,Ventilation Hood Systems  Filters (C),Pass,Clean filters above the char grill from black grime and grease,764 E Fourth ST,South Boston,MA,2127
SIDEWALK CAFE,,Kathleen Connolly,,22835,2012-03-27T13:06:45Z,2021-12-31T23:59:00Z,Active,FT,Eating & Drinking w/ Take Out,HE_FailExt,2021-02-16T11:53:23Z,Temperature Measuring Devices  Food-Accuracy (Pf),Pass,Ensure a properly operating food thermometer is available during hours of operation,764 E Fourth ST,South Boston,MA,2127
SIDEWALK CAFE,,Kathleen Connolly,,22835,2012-03-27T13:06:45Z,2021-12-31T23:59:00Z,Active,FT,Eating & Drinking w/ Take Out,HE_FailExt,2021-02-16T11:53:23Z,Ventilation Hood Systems  Drip Prevention (C),Pass,Empty the drip wells on both sides of the hood from grease and clean to remove the visible soils,764 E Fourth ST,South Boston,MA,2127
SIDEWALK CAFE,,Kathleen Connolly,,22835,2012-03-27T13:06:45Z,2021-12-31T23:59:00Z,Active,FT,Eating & Drinking w/ Take Out,HE_FailExt,2021-02-16T11:53:23Z,Service Sink (C),Fail,Enclosed the exposed areas of the service sink location as discussed,764 E Fourth ST,South Boston,MA,2127
SIDEWALK CAFE,,Kathleen Connolly,,22835,2012-03-27T13:06:45Z,2021-12-31T23:59:00Z,Active,FT,Eating & Drinking w/ Take Out,HE_FailExt,2021-02-16T11:53:23Z,Grease Trap(C),Pass,Clean obnoxious odors and visible soils,764 E Fourth ST,South Boston,MA,2127
SIDEWALK CAFE,,Kathleen Connolly,,22835,2012-03-27T13:06:45Z,2021-12-31T23:59:00Z,Active,FT,Eating & Drinking w/ Take Out,HE_FailExt,2021-02-16T11:53:23Z,Floors  Walls and Ceilings-Cleanability (C),Pass,Cleran floors throughout the facility including downstairs  walls behind all cooking equipment and ceiling areas where needed from all visible food spills  stains and soils,764 E Fourth ST,South Boston,MA,2127
SIDEWALK CAFE,,Kathleen Connolly,,22835,2012-03-27T13:06:45Z,2021-12-31T23:59:00Z,Active,FT,Eating & Drinking w/ Take Out,HE_FailExt,2021-02-16T11:53:23Z,Designated Areas-Employee Accommodations for eating / drinking/smoking (C),Pass,Segragate an area for employees to break and eat as discussed away from the food service areas - break individually due to the current COVID-19 crisis,764 E Fourth ST,South Boston,MA,2127
SIDEWALK CAFE,,Kathleen Connolly,,22835,2012-03-27T13:06:45Z,2021-12-31T23:59:00Z,Active,FT,Eating & Drinking w/ Take Out,HE_FailExt,2021-02-16T11:53:23Z,Using Dressing Rooms and Lockers (C),Pass,Utilioze the lockers and designated area provided for employees to keep all personal items,764 E Fourth ST,South Boston,MA,2127
SIDEWALK CAFE,,Kathleen Connolly,,22835,2012-03-27T13:06:45Z,2021-12-31T23:59:00Z,Active,FT,Eating & Drinking w/ Take Out,HE_FailExt,2021-02-16T11:53:23Z,Maintaining Premises  Unnecessary Items and Litter (C),Fail,Clean to remove all broken equipment and loose debris not affiliated with the restaurant - discontinue leaving personal belongings scattered throughout the restaurant and store in the segragated lockers as discussed,764 E Fourth ST,South Boston,MA,2127
SIX WEST,,Ronca,Vito,410895,2019-09-27T11:26:53Z,2021-12-31T23:59:00Z,Active,FS,Eating & Drinking,HE_Pass,2020-06-25T14:24:34Z,,Pass,,6 W Broadway,South Boston,MA,2127
SIXTH GEAR CASK & KITCHEN,,Cozza Owner,Darryl,162259,2016-01-21T11:58:24Z,2021-12-31T23:59:00Z,Active,FS,Eating & Drinking,HE_Filed,2020-11-13T17:27:26Z,Walls and Ceilings  Attachments (C),Fail,Some articles related to food service are stored in the basement directly underneath a waste pipe  relocate or provide a barrier as discussed during inspection,81  L ST,South Boston,MA,2127
SIXTH GEAR CASK & KITCHEN,,Cozza Owner,Darryl,162259,2016-01-21T11:58:24Z,2021-12-31T23:59:00Z,Active,FS,Eating & Drinking,HE_Filed,2020-11-13T17:27:26Z,Maintaining Premises  Unnecessary Items and Litter (C),Fail,Relocate bags of rock salt stored beside the ice machine in the basement - keep segragated from foods and foos service locations,81  L ST,South Boston,MA,2127
SOUTH BOSTON CHINESE,Shum David,Shum,David,18231,2012-02-15T14:37:41Z,2021-12-31T23:59:00Z,Active,FT,Eating & Drinking w/ Take Out,HE_Fail,2021-03-15T13:49:45Z,Grease Trap(C),Fail,Clean to remove all visible soils,429 W BROADWAY,SOUTH BOSTON,MA,2127
SOUTH BOSTON CHINESE,Shum David,Shum,David,18231,2012-02-15T14:37:41Z,2021-12-31T23:59:00Z,Active,FT,Eating & Drinking w/ Take Out,HE_Fail,2021-03-15T13:49:45Z,(A)-(P) Person-In-Charge-Duties (Pf),Fail,No current 2021 health permit - no allergen awareness certificate on site Address immediately as discussed,429 W BROADWAY,SOUTH BOSTON,MA,2127
SOUTH BOSTON CHINESE,Shum David,Shum,David,18231,2012-02-15T14:37:41Z,2021-12-31T23:59:00Z,Active,FT,Eating & Drinking w/ Take Out,HE_Fail,2021-03-15T13:49:45Z,Packaged and Unpackaged Food-Separation  Packaging  and Segregation  (C),Fail,Ensure all raw foods are stored underneath or clearly and properly seperated during storage in all refrigeration units especially on the cooking line where cross contamination can easily happen                                                                                                                                                           Ensure all foods are elevated off the floor a minimum of six inches during storage,429 W BROADWAY,SOUTH BOSTON,MA,2127
SOUTH BOSTON CHINESE,Shum David,Shum,David,18231,2012-02-15T14:37:41Z,2021-12-31T23:59:00Z,Active,FT,Eating & Drinking w/ Take Out,HE_Fail,2021-03-15T13:49:45Z,Wiping Cloths  Use Limitation (C),Fail,,429 W BROADWAY,SOUTH BOSTON,MA,2127
SOUTH BOSTON CHINESE,Shum David,Shum,David,18231,2012-02-15T14:37:41Z,2021-12-31T23:59:00Z,Active,FT,Eating & Drinking w/ Take Out,HE_Fail,2021-03-15T13:49:45Z,Food-Contact Surfaces-Cleanability (Pf),Fail,Ensure all knives   cleavers saw blades and cutting boards are free from previous usage before using again on another task   some deep lacerations in the cutting boards and some of the ends of the chef knives contain food soils from earlier in the day,429 W BROADWAY,SOUTH BOSTON,MA,2127
SOUTH BOSTON CHINESE,Shum David,Shum,David,18231,2012-02-15T14:37:41Z,2021-12-31T23:59:00Z,Active,FT,Eating & Drinking w/ Take Out,HE_Fail,2021-03-15T13:49:45Z,Service Sink (C),Fail,Discontinue storing the soiled mop water and bucket by the entrance to the front counter area - dump all soiled water in the mop sink area as discussed and sstore in this area when not in use - change the water used to mop the floors on a more frequent basis as discussed,429 W BROADWAY,SOUTH BOSTON,MA,2127
SOUTH BOSTON CHINESE,Shum David,Shum,David,18231,2012-02-15T14:37:41Z,2021-12-31T23:59:00Z,Active,FT,Eating & Drinking w/ Take Out,HE_Fail,2021-03-15T13:49:45Z,Maintaining Premises  Unnecessary Items and Litter (C),Fail,Remove all personal belongings stored by the take out area and keep clean with only items affiliated with food service,429 W BROADWAY,SOUTH BOSTON,MA,2127
SOUTH BOSTON CHINESE,Shum David,Shum,David,18231,2012-02-15T14:37:41Z,2021-12-31T23:59:00Z,Active,FT,Eating & Drinking w/ Take Out,HE_Fail,2021-03-15T13:49:45Z,Drying Mops (C),Fail,Discontinue storing soiled mops directly on the floor and keep elevated as discussed,429 W BROADWAY,SOUTH BOSTON,MA,2127
SOUTH BOSTON CHINESE,Shum David,Shum,David,18231,2012-02-15T14:37:41Z,2021-12-31T23:59:00Z,Active,FT,Eating & Drinking w/ Take Out,HE_Fail,2021-03-15T13:49:45Z,Separation-Storage (P),Fail,Remove open bags of rock salt by the front counter area and keep completly segragated from the food service locations as discussed,429 W BROADWAY,SOUTH BOSTON,MA,2127
SOUTH BOSTON MARKET,,Soto,Yuan,197937,2016-07-12T08:06:10Z,2021-12-31T23:59:00Z,Active,RF,Retail Food,HE_Filed,2021-02-22T15:14:20Z,Packaged and Unpackaged Food-Separation  Packaging  and Segregation  (C),Fail,Ensure all foods are being stored elevated off the floor a minimum of six inches during storage so the floors can be cleaned properl cleaned and to  reduce potential water damage from the pooling water and snow being brought in from customers entering the store from outside,626   Dorchester AVE,South Boston,MA,2127
SOUTH BOSTON MARKET,,Soto,Yuan,197937,2016-07-12T08:06:10Z,2021-12-31T23:59:00Z,Active,RF,Retail Food,HE_Filed,2021-02-22T15:14:20Z,Miscellaneous Sources of Contamination (C),Fail,Single use aluminum pans out for retail sale in the grocery aisles are being stored without any coverings or protection as well as exposing the interior of the pan - invert pans as discussed and / or provide some form of protection as discussed during inspection,626   Dorchester AVE,South Boston,MA,2127
SOUTH BOSTON MARKET,,Soto,Yuan,197937,2016-07-12T08:06:10Z,2021-12-31T23:59:00Z,Active,RF,Retail Food,HE_Filed,2021-02-22T15:14:20Z,Food Labels (C),Fail,Properly label to identify all bulk food containers and any other foods out for retail sale that may need to be addressed accordingly,626   Dorchester AVE,South Boston,MA,2127
SOUTH BOSTON YACHT CLUB,Board Of Trustees,Board Of Trustees,,21203,2012-01-10T14:31:27Z,2021-12-31T23:59:00Z,Active,FS,Eating & Drinking,HE_Pass,2020-09-29T15:54:07Z,Compliance with Food Law  (Pf),Pass,Discontinue purchasing foods from retail stores - only purchase foods from reputable wholesale suppliers,1849   Columbia RD,South Boston,MA,2127
SOUTH BOSTON YACHT CLUB,Board Of Trustees,Board Of Trustees,,21203,2012-01-10T14:31:27Z,2021-12-31T23:59:00Z,Active,FS,Eating & Drinking,HE_Pass,2020-09-29T15:54:07Z,Sponges Use Limitation (C),Pass,Discontinue using to clean food contact surfaces,1849   Columbia RD,South Boston,MA,2127
SOUTH BOSTON YACHT CLUB,Board Of Trustees,Board Of Trustees,,21203,2012-01-10T14:31:27Z,2021-12-31T23:59:00Z,Active,FS,Eating & Drinking,HE_Pass,2020-09-29T15:54:07Z,CIP Equipment (C),Pass,Clean stove top- exterior of all sinks   dishwasher  freezer and refrigeration units from visible food spills  stains and soils,1849   Columbia RD,South Boston,MA,2127
SOUTH BOSTON YACHT CLUB,Board Of Trustees,Board Of Trustees,,21203,2012-01-10T14:31:27Z,2021-12-31T23:59:00Z,Active,FS,Eating & Drinking,HE_Pass,2020-09-29T15:54:07Z,Ventilation Hood Systems  Filters (C),Pass,Clean vents in the hood from visible soils,1849   Columbia RD,South Boston,MA,2127
SOUTH BOSTON YACHT CLUB,Board Of Trustees,Board Of Trustees,,21203,2012-01-10T14:31:27Z,2021-12-31T23:59:00Z,Active,FS,Eating & Drinking,HE_Pass,2020-09-29T15:54:07Z,Warewashing Equipment  Determining Chemical Sanitizer Concentration (Pf),Pass,Sanitizer was empty when i ran the dish machine - ensure sanitizer is checked on a more frequent basis throughout the working day,1849   Columbia RD,South Boston,MA,2127
SOUTH BOSTON YACHT CLUB,Board Of Trustees,Board Of Trustees,,21203,2012-01-10T14:31:27Z,2021-12-31T23:59:00Z,Active,FS,Eating & Drinking,HE_Pass,2020-09-29T15:54:07Z,Wall and Ceiling Coverings and Coatings (C),Pass,Clean vent in the air conditioner from all visible soils llocated above the prep table,1849   Columbia RD,South Boston,MA,2127
SOUTH BOSTON YACHT CLUB,Board Of Trustees,Board Of Trustees,,21203,2012-01-10T14:31:27Z,2021-12-31T23:59:00Z,Active,FS,Eating & Drinking,HE_Pass,2020-09-29T15:54:07Z,Handwashing Signage  (C),Pass,Ensure hand washing signs are located at each sink to properly identify,1849   Columbia RD,South Boston,MA,2127
SOUTH BOSTON YACHT CLUB,Board Of Trustees,Board Of Trustees,,21203,2012-01-10T14:31:27Z,2021-12-31T23:59:00Z,Active,FS,Eating & Drinking,HE_Pass,2020-09-29T15:54:07Z,Repairing-Premises  Structures  Attachments  and Fixtures-Methods (C),Pass,Ensure all exposed wooden surfaces in the kitchen prep area is sealed properly as discussed during inspection,1849   Columbia RD,South Boston,MA,2127
SPORTS CONNECTION BAR & GRILL,Angelo A. Attardo  Pres.,Angelo A. Attardo Pres.,,21263,2011-12-23T11:23:27Z,2021-12-31T23:59:00Z,Active,FS,Eating & Drinking,HE_Pass,2021-04-23T12:12:57Z,,Pass,,560   Dorchester AVE,South Boston,MA,2127
STARBUCKS COFFEE COMPANY,,Starbucks Corp.,Attn: Mary Her,78060,2013-08-09T09:35:01Z,2021-12-31T23:59:00Z,Active,FT,Eating & Drinking w/ Take Out,HE_Pass,2021-02-16T10:38:49Z,Temperature Measuring Devices  Manual and Mechanical Warewashing (Pf),Pass,No irreversible thermometer or temperature strips present for monitoring dish machine temperature.,11 W Broadway,South Boston,MA,2127
STARBUCKS COFFEE COMPANY,,Starbucks Corp.,Attn: Mary Her,78060,2013-08-09T09:35:01Z,2021-12-31T23:59:00Z,Active,FT,Eating & Drinking w/ Take Out,HE_Pass,2021-02-16T10:38:49Z,,Pass,8-304.11 (A) Post the current permit in a location in the food establishment that is conspicuous to consumers.,11 W Broadway,South Boston,MA,2127
STATS BAR & GRILLE,Devlin Michael Ts,Statires Group L L C,,68489,2012-01-05T20:46:10Z,2021-12-31T23:59:00Z,Active,FS,Eating & Drinking,HE_Filed,2021-03-09T13:04:31Z,Miscellaneous Sources of Contamination (C),Fail,Discontinue storing plates / utensils in any common areas of the restaurant that customers can gain an easy access to - store in proper locations in the kitchen to reduce potential contamination from customers  and non employees                                                                                    Ensure any bug light devices being used on the  premises are stored in non- food / clean equipment contact locations as discussed during inspection,77   Dorchester ST,South Boston,MA,2127
STATS BAR & GRILLE,Devlin Michael Ts,Statires Group L L C,,68489,2012-01-05T20:46:10Z,2021-12-31T23:59:00Z,Active,FS,Eating & Drinking,HE_Filed,2021-03-09T13:04:31Z,Floors  Walls and Ceilings-Cleanability (C),Fail,Clean to remove all visible soils on nthe floor underneath the ware washing machine in and aound all the plumbing pipes  grease trap                    Clean light shields where needed in the kitchen from all visible soils                                                                                                                               Remove rags tied up along pipes coming from the air conditioner being used to collect condensation  address properly as discussed,77   Dorchester ST,South Boston,MA,2127
STATS BAR & GRILLE,Devlin Michael Ts,Statires Group L L C,,68489,2012-01-05T20:46:10Z,2021-12-31T23:59:00Z,Active,FS,Eating & Drinking,HE_Filed,2021-03-09T13:04:31Z,Handwashing Signage  (C),Fail,"Ensure all hand sinks scattered throughout the facility are clearly and properly labeled as discussed during inspection "" Hand Washing Only """,77   Dorchester ST,South Boston,MA,2127
STOP & SHOP  NO. 053,,Stop & Shop Supermarket Co.,Attn: Licensing Dept.,21719,2011-12-05T12:40:11Z,2021-12-31T23:59:00Z,Active,RF,Retail Food,HE_Pass,2021-03-08T15:32:43Z,Compliance with Food Law (C),Pass,Packages [2] of eye round steak in the meat case appear altered with blackened edges and loosely wrapped in plastic  removed,713 E Broadway,South Boston,MA,2127
STOP & SHOP  NO. 053,,Stop & Shop Supermarket Co.,Attn: Licensing Dept.,21719,2011-12-05T12:40:11Z,2021-12-31T23:59:00Z,Active,RF,Retail Food,HE_Pass,2021-03-08T15:32:43Z,Packaged and Unpackaged Food-Separation  Packaging  and Segregation  (C),Pass,Discontinue storing produce agains the front vent in the refrigerated  case   it is blocking the air flow                                                                 Do not store fresh produce above the recommenmded fill line                                                                                                                                DELI CASE : SUSHI out for retail sale is stored in between ready to eat foods   remove and relocate                                                               MEAT CASE: packages of hamburger stacked too high in the case  discontinue,713 E Broadway,South Boston,MA,2127
STOP & SHOP  NO. 053,,Stop & Shop Supermarket Co.,Attn: Licensing Dept.,21719,2011-12-05T12:40:11Z,2021-12-31T23:59:00Z,Active,RF,Retail Food,HE_Pass,2021-03-08T15:32:43Z,Wiping Cloths  Use Limitation (C),Pass,Set up as discussed - one for raw   one for ready to eat in the deli and meat dept.,713 E Broadway,South Boston,MA,2127
STOP & SHOP  NO. 053,,Stop & Shop Supermarket Co.,Attn: Licensing Dept.,21719,2011-12-05T12:40:11Z,2021-12-31T23:59:00Z,Active,RF,Retail Food,HE_Pass,2021-03-08T15:32:43Z,Frozen Food (C),Pass,Frozen packages of cooked shrimp out in the refrigeration unit appear completely thawed  either sell fresh or frozen to reduce potential contamination and abuse of quality,713 E Broadway,South Boston,MA,2127
STOP & SHOP  NO. 053,,Stop & Shop Supermarket Co.,Attn: Licensing Dept.,21719,2011-12-05T12:40:11Z,2021-12-31T23:59:00Z,Active,RF,Retail Food,HE_Pass,2021-03-08T15:32:43Z,Nonfood-Contact Surfaces (C),Pass,Clean all the black shelving in the produce case from visible soils - clean shelving where needed throughout the grocery aisle from all visibloe soils,713 E Broadway,South Boston,MA,2127
STOP & SHOP  NO. 053,,Stop & Shop Supermarket Co.,Attn: Licensing Dept.,21719,2011-12-05T12:40:11Z,2021-12-31T23:59:00Z,Active,RF,Retail Food,HE_Pass,2021-03-08T15:32:43Z,Floors  Walls and Ceilings-Cleanability (C),Pass,Clean floors  and walls in the meat room from all visible soils,713 E Broadway,South Boston,MA,2127
SUBWAY,,Patel,Komal,141241,2015-03-25T10:43:44Z,2021-12-31T23:59:00Z,Active,FT,Eating & Drinking w/ Take Out,HE_Fail,2021-03-05T14:23:46Z,(A)-(P) Person-In-Charge-Duties (Pf),Fail,Expired food safety certificate - PIC on site was unfamiliar with its importance  address,11 W Broadway,South Boston,MA,2127
SUBWAY,,Patel,Komal,141241,2015-03-25T10:43:44Z,2021-12-31T23:59:00Z,Active,FT,Eating & Drinking w/ Take Out,HE_Fail,2021-03-05T14:23:46Z,Food Labels (C),Fail,Clearly label to properly identify all clear plastic spray bottles located throughout the facility,11 W Broadway,South Boston,MA,2127
SULLIVAN'S,Sullivan,Daniel F. Sullivan,C/o Brandan M. Sullivan,18833,2011-12-19T10:25:53Z,2021-12-31T23:59:00Z,Active,FT,Eating & Drinking w/ Take Out,HE_Pass,2020-06-08T11:07:32Z,,Pass,,2080   WM J DAY  BL,SOUTH BOSTON,MA,2127
SUPREME HOUSE OF PIZZA,Rotary Variety Store Inc,Zerhouni,Sanae,160954,2016-01-27T14:20:41Z,2021-12-31T23:59:00Z,Active,FT,Eating & Drinking w/ Take Out,HE_Filed,2020-11-04T11:04:57Z,(O) Person in Charge-Duties (Pf),Pass,PIC not overseeing the cleanliness of the facility properly  address,309  Old Colony AVE,South Boston,MA,2127
SUPREME HOUSE OF PIZZA,Rotary Variety Store Inc,Zerhouni,Sanae,160954,2016-01-27T14:20:41Z,2021-12-31T23:59:00Z,Active,FT,Eating & Drinking w/ Take Out,HE_Filed,2020-11-04T11:04:57Z,Wiping Cloths  Use Limitation (C),Pass,Set up as discussed and dicontinue throwing rags on the floor,309  Old Colony AVE,South Boston,MA,2127
SUPREME HOUSE OF PIZZA,Rotary Variety Store Inc,Zerhouni,Sanae,160954,2016-01-27T14:20:41Z,2021-12-31T23:59:00Z,Active,FT,Eating & Drinking w/ Take Out,HE_Filed,2020-11-04T11:04:57Z,Nonfood-Contact Surfaces (C),Pass,Clean inside and outside of all freezer / refrigeration units -  exterior of all bulk food containers - underneath all prep tables - exterior of all cooking equipmenmt  ware washing sinks counter tops from all visible food spills  stains and soils,309  Old Colony AVE,South Boston,MA,2127
SUPREME HOUSE OF PIZZA,Rotary Variety Store Inc,Zerhouni,Sanae,160954,2016-01-27T14:20:41Z,2021-12-31T23:59:00Z,Active,FT,Eating & Drinking w/ Take Out,HE_Filed,2020-11-04T11:04:57Z,Ventilation Hood Systems  Filters (C),Pass,Clean vents in the hood from visible grease and grime,309  Old Colony AVE,South Boston,MA,2127
SUPREME HOUSE OF PIZZA,Rotary Variety Store Inc,Zerhouni,Sanae,160954,2016-01-27T14:20:41Z,2021-12-31T23:59:00Z,Active,FT,Eating & Drinking w/ Take Out,HE_Filed,2020-11-04T11:04:57Z,Drain boards (C),Pass,Ensure there is a ample and clean area for utensils  pots and pans to properly air dry,309  Old Colony AVE,South Boston,MA,2127
SUPREME HOUSE OF PIZZA,Rotary Variety Store Inc,Zerhouni,Sanae,160954,2016-01-27T14:20:41Z,2021-12-31T23:59:00Z,Active,FT,Eating & Drinking w/ Take Out,HE_Filed,2020-11-04T11:04:57Z,Cutting Surfaces (C),Pass,Clean cutting boards in the kitchen from visible soils and lacerations,309  Old Colony AVE,South Boston,MA,2127
SUPREME HOUSE OF PIZZA,Rotary Variety Store Inc,Zerhouni,Sanae,160954,2016-01-27T14:20:41Z,2021-12-31T23:59:00Z,Active,FT,Eating & Drinking w/ Take Out,HE_Filed,2020-11-04T11:04:57Z,(B) Good Repair and Calibration (Pf),Pass,,309  Old Colony AVE,South Boston,MA,2127
SUPREME HOUSE OF PIZZA,Rotary Variety Store Inc,Zerhouni,Sanae,160954,2016-01-27T14:20:41Z,2021-12-31T23:59:00Z,Active,FT,Eating & Drinking w/ Take Out,HE_Filed,2020-11-04T11:04:57Z,Equipment Food-Contact Surfaces and Utensils-Frequency (P),Pass,Clean to mremove all visible soils properly as discussed during inspection,309  Old Colony AVE,South Boston,MA,2127
SUPREME HOUSE OF PIZZA,Rotary Variety Store Inc,Zerhouni,Sanae,160954,2016-01-27T14:20:41Z,2021-12-31T23:59:00Z,Active,FT,Eating & Drinking w/ Take Out,HE_Filed,2020-11-04T11:04:57Z,Storage of Soiled Linens (C),Pass,Discontinue keeping soiled linen bag on the floor   keep elevated as discussed to reduce rodent activity,309  Old Colony AVE,South Boston,MA,2127
SUPREME HOUSE OF PIZZA,Rotary Variety Store Inc,Zerhouni,Sanae,160954,2016-01-27T14:20:41Z,2021-12-31T23:59:00Z,Active,FT,Eating & Drinking w/ Take Out,HE_Filed,2020-11-04T11:04:57Z,Service Sink (C),Pass,Enclose exposed area as discussed,309  Old Colony AVE,South Boston,MA,2127
SUPREME HOUSE OF PIZZA,Rotary Variety Store Inc,Zerhouni,Sanae,160954,2016-01-27T14:20:41Z,2021-12-31T23:59:00Z,Active,FT,Eating & Drinking w/ Take Out,HE_Filed,2020-11-04T11:04:57Z,Using Drain Plugs (C),Pass,Ensure three drain plugs are available for the three bay sink,309  Old Colony AVE,South Boston,MA,2127
SUPREME HOUSE OF PIZZA,Rotary Variety Store Inc,Zerhouni,Sanae,160954,2016-01-27T14:20:41Z,2021-12-31T23:59:00Z,Active,FT,Eating & Drinking w/ Take Out,HE_Filed,2020-11-04T11:04:57Z,Outside Receptacles (C),Fail,Overloaded trash receptacle  loose trash and debris in front of the entrance  Clean to remove all visible debris,309  Old Colony AVE,South Boston,MA,2127
SUPREME HOUSE OF PIZZA,Rotary Variety Store Inc,Zerhouni,Sanae,160954,2016-01-27T14:20:41Z,2021-12-31T23:59:00Z,Active,FT,Eating & Drinking w/ Take Out,HE_Filed,2020-11-04T11:04:57Z,Floors  Walls and Ceilings-Cleanability (C),Pass,Clean the floors and walls throughout the facility from all visible food spillos  stains and soils,309  Old Colony AVE,South Boston,MA,2127
SUPREME HOUSE OF PIZZA,Rotary Variety Store Inc,Zerhouni,Sanae,160954,2016-01-27T14:20:41Z,2021-12-31T23:59:00Z,Active,FT,Eating & Drinking w/ Take Out,HE_Filed,2020-11-04T11:04:57Z,Handwashing Signage  (C),Pass,Identify hand sinks as discussed,309  Old Colony AVE,South Boston,MA,2127
SUPREME HOUSE OF PIZZA,Rotary Variety Store Inc,Zerhouni,Sanae,160954,2016-01-27T14:20:41Z,2021-12-31T23:59:00Z,Active,FT,Eating & Drinking w/ Take Out,HE_Filed,2020-11-04T11:04:57Z,Controlling Pests (Pf),Pass,Evidence of rodent droppings contact pest control company as discussed,309  Old Colony AVE,South Boston,MA,2127
SUPREME HOUSE OF PIZZA,Rotary Variety Store Inc,Zerhouni,Sanae,160954,2016-01-27T14:20:41Z,2021-12-31T23:59:00Z,Active,FT,Eating & Drinking w/ Take Out,HE_Filed,2020-11-04T11:04:57Z,Repairing-Premises  Structures  Attachments  and Fixtures-Methods (C),Fail,Booths in the seating area are visibly compromised  clean to remove all soils  discard any absorbant materials such as soiled cushions  repair broken wooden areas where needed,309  Old Colony AVE,South Boston,MA,2127
SUPREME HOUSE OF PIZZA,Rotary Variety Store Inc,Zerhouni,Sanae,160954,2016-01-27T14:20:41Z,2021-12-31T23:59:00Z,Active,FT,Eating & Drinking w/ Take Out,HE_Filed,2020-11-04T11:04:57Z,Cleaning of Plumbing Fixtures (C),Pass,Clean all visibly soiled pipes underneath the sinks from grease  grime and soils,309  Old Colony AVE,South Boston,MA,2127
TEMAZCAL CANTINA,,Rebel Restaurants Inc.,Jon Cronin,201182,2016-08-11T09:00:32Z,2021-12-31T23:59:00Z,Active,FS,Eating & Drinking,HE_Filed,2021-04-01T14:50:22Z,Handwashing Signage  (C),Fail,"Clearly label all hand sinks located throughout the food prep / warewashing and bar areas as discussed "" HAND WASHING ONLY""",250  Northern AVE,South Boston,MA,2210
TERIYAKI HOUSE,,Jennifer Y. Lai Pres.,,22879,2012-02-08T18:32:29Z,2021-12-31T23:59:00Z,Active,FT,Eating & Drinking w/ Take Out,HE_Pass,2020-10-15T15:53:39Z,Ventilation Hood Systems  Filters (C),Pass,Clean and remove filters above the salamander,32 W Broadway,South Boston,MA,2127
TERIYAKI HOUSE,,Jennifer Y. Lai Pres.,,22879,2012-02-08T18:32:29Z,2021-12-31T23:59:00Z,Active,FT,Eating & Drinking w/ Take Out,HE_Pass,2020-10-15T15:53:39Z,Ventilation Hood Systems  Drip Prevention (C),Pass,Ensure each end cap has a drip tray,32 W Broadway,South Boston,MA,2127
TERIYAKI HOUSE,,Jennifer Y. Lai Pres.,,22879,2012-02-08T18:32:29Z,2021-12-31T23:59:00Z,Active,FT,Eating & Drinking w/ Take Out,HE_Pass,2020-10-15T15:53:39Z,Ventilation Hood Systems  Adequacy (C),Pass,Hood is not operating properly in the middle section of the cooking line  address,32 W Broadway,South Boston,MA,2127
TERIYAKI HOUSE,,Jennifer Y. Lai Pres.,,22879,2012-02-08T18:32:29Z,2021-12-31T23:59:00Z,Active,FT,Eating & Drinking w/ Take Out,HE_Pass,2020-10-15T15:53:39Z,Floors  Walls and Ceilings-Cleanability (C),Pass,Clean floors walls and ceiling throughout thye kitchen area from visible food spillos  stains and soils,32 W Broadway,South Boston,MA,2127
TERIYAKI HOUSE,,Jennifer Y. Lai Pres.,,22879,2012-02-08T18:32:29Z,2021-12-31T23:59:00Z,Active,FT,Eating & Drinking w/ Take Out,HE_Pass,2020-10-15T15:53:39Z,Maintaining Premises  Unnecessary Items and Litter (C),Pass,Remove all personal items from the front counter area wgere food is being assembled,32 W Broadway,South Boston,MA,2127
THE BROADWAY RESTAURANT,Boston Beer Garden Giuseppe,James Associate Inc.,,318049,2017-11-13T10:07:15Z,2021-12-31T23:59:00Z,Active,FS,Eating & Drinking,HE_Pass,2021-03-22T16:10:45Z,(A)-(P) Person-In-Charge-Duties (Pf),Pass,Manager to re-train staff to have proper supplies at all necessary handwash stations check daily.,732 E Broadway,South Boston,MA,2127
THE BROADWAY RESTAURANT,Boston Beer Garden Giuseppe,James Associate Inc.,,318049,2017-11-13T10:07:15Z,2021-12-31T23:59:00Z,Active,FS,Eating & Drinking,HE_Pass,2021-03-22T16:10:45Z,Food Storage Containers Identified with Common Name of Food (C),Pass,Provide labels on all bulk storage containers.,732 E Broadway,South Boston,MA,2127
THE BROADWAY RESTAURANT,Boston Beer Garden Giuseppe,James Associate Inc.,,318049,2017-11-13T10:07:15Z,2021-12-31T23:59:00Z,Active,FS,Eating & Drinking,HE_Pass,2021-03-22T16:10:45Z,(B) and (C) Equipment  Food-Contact Surfaces  Nonfood-Contact Surfaces  and Utensils (C),Pass,Clean the interior of the flash freezer to remove spills.,732 E Broadway,South Boston,MA,2127
THE BROADWAY RESTAURANT,Boston Beer Garden Giuseppe,James Associate Inc.,,318049,2017-11-13T10:07:15Z,2021-12-31T23:59:00Z,Active,FS,Eating & Drinking,HE_Pass,2021-03-22T16:10:45Z,(A) Equipment  Food-Contact Surfaces  Nonfood-Contact Surfaces  and Utensils (Pf),Pass,Interior white panel of the large ice machine observed with soils.Clean to remove soils.  Bars: 2 low temp dish machines not reading chlorine.Repair. Maintain chlorine 50PPM or per manufactures instructions. Alternate machine to be used at the bar until repairs ar complete.,732 E Broadway,South Boston,MA,2127
THE BROADWAY RESTAURANT,Boston Beer Garden Giuseppe,James Associate Inc.,,318049,2017-11-13T10:07:15Z,2021-12-31T23:59:00Z,Active,FS,Eating & Drinking,HE_Pass,2021-03-22T16:10:45Z,Using a Handwashing Sink-Operation and Maintenance (Pf),Pass,2 handwash sinks observed obstructed.Clear obstruction maintai accessible to ensure proper handwashing can be completed. PIC corrected,732 E Broadway,South Boston,MA,2127
THE BROADWAY RESTAURANT,Boston Beer Garden Giuseppe,James Associate Inc.,,318049,2017-11-13T10:07:15Z,2021-12-31T23:59:00Z,Active,FS,Eating & Drinking,HE_Pass,2021-03-22T16:10:45Z,System Maintained in Good Repair (C),Pass,Handwash sink across from the expiditing line observed loose.Repair,732 E Broadway,South Boston,MA,2127
THE BROADWAY RESTAURANT,Boston Beer Garden Giuseppe,James Associate Inc.,,318049,2017-11-13T10:07:15Z,2021-12-31T23:59:00Z,Active,FS,Eating & Drinking,HE_Pass,2021-03-22T16:10:45Z,System Maintained in Good Repair (P),Pass,Floor drain observed backing up into dish room.Repair Plumber is observed on site repair in progress. PIC instructed to forward licensed plumbers report. Clean & sanitizer location upon completion of the repair Assistant Commissioner Dan Prendergast notified,732 E Broadway,South Boston,MA,2127
THE BROADWAY RESTAURANT,Boston Beer Garden Giuseppe,James Associate Inc.,,318049,2017-11-13T10:07:15Z,2021-12-31T23:59:00Z,Active,FS,Eating & Drinking,HE_Pass,2021-03-22T16:10:45Z,Hand Drying Provision (Pf),Pass,multiple handwash stations missing paper towels.Provide PIC correcting,732 E Broadway,South Boston,MA,2127
THE GALLEY DINER,Paul Skudris,Skudris,Mary L.,20014,2012-01-05T11:29:21Z,2021-12-31T23:59:00Z,Active,FS,Eating & Drinking,HE_Pass,2021-04-08T12:00:23Z,Compliance with Food Law  (Pf),Pass,Discontinue purchasing foods from retail establishments and only purchase from reputable wholesale suppliers,11   P STREET ST,SOUTH BOSTON,MA,2127
THE GALLEY DINER,Paul Skudris,Skudris,Mary L.,20014,2012-01-05T11:29:21Z,2021-12-31T23:59:00Z,Active,FS,Eating & Drinking,HE_Pass,2021-04-08T12:00:23Z,Food Labels (C),Pass,Label to properly identify all bulk food storage bins as well as all clear plastic spray bottles scattered throughout the facility,11   P STREET ST,SOUTH BOSTON,MA,2127
THE GALLEY DINER,Paul Skudris,Skudris,Mary L.,20014,2012-01-05T11:29:21Z,2021-12-31T23:59:00Z,Active,FS,Eating & Drinking,HE_Pass,2021-04-08T12:00:23Z,Consumption of Animal Foods that are Raw  Undercooked  or Not Otherwise Processed to Eliminate Pathogens (Pf),Pass,Ensure all foods offered undercooked are identified with the proper disclosure/ reminder as discussed,11   P STREET ST,SOUTH BOSTON,MA,2127
THE GALLEY DINER,Paul Skudris,Skudris,Mary L.,20014,2012-01-05T11:29:21Z,2021-12-31T23:59:00Z,Active,FS,Eating & Drinking,HE_Pass,2021-04-08T12:00:23Z,Wall and Ceiling Coverings and Coatings (C),Pass,Clean floors  walls and ceing where needed from all visible food spills  stains and soils,11   P STREET ST,SOUTH BOSTON,MA,2127
THE GALLEY DINER,Paul Skudris,Skudris,Mary L.,20014,2012-01-05T11:29:21Z,2021-12-31T23:59:00Z,Active,FS,Eating & Drinking,HE_Pass,2021-04-08T12:00:23Z,Handwashing Signage  (C),Pass,Clearly identify all hand sinmks clearly as discussed,11   P STREET ST,SOUTH BOSTON,MA,2127
THE HUB,Chiminiello Robyn,Siu Zian (danny),Chan,156012,2015-10-22T14:14:10Z,2021-12-31T23:59:00Z,Active,RF,Retail Food,HE_Pass,2021-04-13T15:44:41Z,(A)-(P) Person-In-Charge-Duties (Pf),Pass,PIC is not overseeing the proper cleanliness of the facility  - address as discussed,604 E Broadway,South Boston,MA,2127
THE HUB,Chiminiello Robyn,Siu Zian (danny),Chan,156012,2015-10-22T14:14:10Z,2021-12-31T23:59:00Z,Active,RF,Retail Food,HE_Pass,2021-04-13T15:44:41Z,Packaged and Unpackaged Food-Separation  Packaging  and Segregation  (C),Pass,Keep all foods elevated off the floor a minimum of six inches during storage,604 E Broadway,South Boston,MA,2127
THE HUB,Chiminiello Robyn,Siu Zian (danny),Chan,156012,2015-10-22T14:14:10Z,2021-12-31T23:59:00Z,Active,RF,Retail Food,HE_Pass,2021-04-13T15:44:41Z,Service Sink (C),Pass,Enclose remaining as discussed,604 E Broadway,South Boston,MA,2127
THE JUICE BOX,,Durso Owner,Anthony,166081,2016-02-19T08:27:51Z,2021-12-31T23:59:00Z,Active,FT,Eating & Drinking w/ Take Out,HE_Pass,2021-04-15T12:31:14Z,Clean Condition-Outer Clothing (C),Pass,Ensure clean outer garments / aprons are worn by staff while preparing foods,359 W Broadway,South Boston,MA,2127
THE JUICE BOX,,Durso Owner,Anthony,166081,2016-02-19T08:27:51Z,2021-12-31T23:59:00Z,Active,FT,Eating & Drinking w/ Take Out,HE_Pass,2021-04-15T12:31:14Z,Nonfood-Contact Surfaces (C),Pass,No barrier by the front counter where customers are to order their drinks  exposed food service location  Address as discussed,359 W Broadway,South Boston,MA,2127
THE JUICE BOX,,Durso Owner,Anthony,166081,2016-02-19T08:27:51Z,2021-12-31T23:59:00Z,Active,FT,Eating & Drinking w/ Take Out,HE_Pass,2021-04-15T12:31:14Z,(A) and (C) Equipment  Utensils  Linens and Single-Service and Single-Use Articles-Storing (C),Pass,Relocate the plastic liods and cups located on top of the front counter area - too close to customers without any proper protection -address,359 W Broadway,South Boston,MA,2127
THE PARAMOUNT,,Paramount South Boston Inc.,,75944,2011-12-12T09:24:39Z,2021-12-31T23:59:00Z,Active,FS,Eating & Drinking,HE_Pass,2020-09-30T15:31:48Z,(A)  (B) and (C)(1)  (4)-(16) Demonstration (Pf),Pass,Food safety certificvatye has been expired since 2/1/20  Address as discussed,667 E Broadway,South Boston,MA,2127
THE PARAMOUNT,,Paramount South Boston Inc.,,75944,2011-12-12T09:24:39Z,2021-12-31T23:59:00Z,Active,FS,Eating & Drinking,HE_Pass,2020-09-30T15:31:48Z,Effectiveness-Hair Restraints (C),Pass,Ensure all prep cooks have proper hair restraints when working with food,667 E Broadway,South Boston,MA,2127
THE PARAMOUNT,,Paramount South Boston Inc.,,75944,2011-12-12T09:24:39Z,2021-12-31T23:59:00Z,Active,FS,Eating & Drinking,HE_Pass,2020-09-30T15:31:48Z,Packaged and Unpackaged Food-Separation  Packaging  and Segregation  (C),Pass,Produce being stored too close to the exposed mop sink   relocate as discussed,667 E Broadway,South Boston,MA,2127
THE PARAMOUNT,,Paramount South Boston Inc.,,75944,2011-12-12T09:24:39Z,2021-12-31T23:59:00Z,Active,FS,Eating & Drinking,HE_Pass,2020-09-30T15:31:48Z,Washing Fruits and Vegetables (C),Pass,Label to properly identify the prep sink and keep it clean and free from soils after use,667 E Broadway,South Boston,MA,2127
THE PARAMOUNT,,Paramount South Boston Inc.,,75944,2011-12-12T09:24:39Z,2021-12-31T23:59:00Z,Active,FS,Eating & Drinking,HE_Pass,2020-09-30T15:31:48Z,In-Use Utensils  Between-Use Storage (C),Pass,Ensure a scoop with a handle is used when dispensing ingredients from bulk food storage bins  currently using a paper cup,667 E Broadway,South Boston,MA,2127
THE PARAMOUNT,,Paramount South Boston Inc.,,75944,2011-12-12T09:24:39Z,2021-12-31T23:59:00Z,Active,FS,Eating & Drinking,HE_Pass,2020-09-30T15:31:48Z,(B) and (C) Equipment  Food-Contact Surfaces  Nonfood-Contact Surfaces  and Utensils (C),Pass,No barrier on the left side of the hand sink in the basement prep room located beside a shelving unit containing clean equipment   address,667 E Broadway,South Boston,MA,2127
THE PARAMOUNT,,Paramount South Boston Inc.,,75944,2011-12-12T09:24:39Z,2021-12-31T23:59:00Z,Active,FS,Eating & Drinking,HE_Pass,2020-09-30T15:31:48Z,Kitchenware and Tableware-Preventing Contamination (C),Pass,Relocate clean pots and pans being stored on top of the front counter area  too close to customers as well as being exposed to potential contamination  address,667 E Broadway,South Boston,MA,2127
THE PARAMOUNT,,Paramount South Boston Inc.,,75944,2011-12-12T09:24:39Z,2021-12-31T23:59:00Z,Active,FS,Eating & Drinking,HE_Pass,2020-09-30T15:31:48Z,Service Sink (C),Pass,Enclose service sink area as discussed,667 E Broadway,South Boston,MA,2127
THE PARAMOUNT,,Paramount South Boston Inc.,,75944,2011-12-12T09:24:39Z,2021-12-31T23:59:00Z,Active,FS,Eating & Drinking,HE_Pass,2020-09-30T15:31:48Z,Grease Trap(C),Pass,Clean to remove rusted areas and visible soils,667 E Broadway,South Boston,MA,2127
THE PARAMOUNT,,Paramount South Boston Inc.,,75944,2011-12-12T09:24:39Z,2021-12-31T23:59:00Z,Active,FS,Eating & Drinking,HE_Pass,2020-09-30T15:31:48Z,Hand Drying Provision (Pf),Pass,Ensure all hand sinks are properly stocked with ample paper towels so staff can properly dry their hands when needed,667 E Broadway,South Boston,MA,2127
THE PARAMOUNT,,Paramount South Boston Inc.,,75944,2011-12-12T09:24:39Z,2021-12-31T23:59:00Z,Active,FS,Eating & Drinking,HE_Pass,2020-09-30T15:31:48Z,Controlling Pests (C),Pass,Contact pest control company to assist with a fruit fly / drain fly issue in the basement area,667 E Broadway,South Boston,MA,2127
THE PLAYWRIGHT,Bolger Julilan,Bolger,Julian,21571,2011-12-13T13:10:39Z,2021-12-31T23:59:00Z,Active,FS,Eating & Drinking,HE_Pass,2021-03-22T15:07:09Z,Ventilation Hood Systems  Filters (C),Pass,Clean to remove all visible soils,658 E Broadway,South Boston,MA,2127
THE PLAYWRIGHT,Bolger Julilan,Bolger,Julian,21571,2011-12-13T13:10:39Z,2021-12-31T23:59:00Z,Active,FS,Eating & Drinking,HE_Pass,2021-03-22T15:07:09Z,Other Liquid Wastes and Rainwater (C),Pass,Cover grease containers outside when not in use - clean to remove all soils andf grease,658 E Broadway,South Boston,MA,2127
THE PLAYWRIGHT,Bolger Julilan,Bolger,Julian,21571,2011-12-13T13:10:39Z,2021-12-31T23:59:00Z,Active,FS,Eating & Drinking,HE_Pass,2021-03-22T15:07:09Z,Covering Receptacles (C),Pass,,658 E Broadway,South Boston,MA,2127
THE PLAYWRIGHT,Bolger Julilan,Bolger,Julian,21571,2011-12-13T13:10:39Z,2021-12-31T23:59:00Z,Active,FS,Eating & Drinking,HE_Pass,2021-03-22T15:07:09Z,Maintaining Refuse Areas and Enclosures (C),Pass,Clean entire area frtom loose debris . grease deposits that seem to be attracting rodentd activity [ outside anyway ],658 E Broadway,South Boston,MA,2127
THE PLAYWRIGHT,Bolger Julilan,Bolger,Julian,21571,2011-12-13T13:10:39Z,2021-12-31T23:59:00Z,Active,FS,Eating & Drinking,HE_Pass,2021-03-22T15:07:09Z,Walls and Ceilings  Attachments (C),Pass,Address the pipe issue above the hand sink in the ware washing area - peeling outer layer is falling into the sink and other areas of the kitchen,658 E Broadway,South Boston,MA,2127
THE PLAYWRIGHT,Bolger Julilan,Bolger,Julian,21571,2011-12-13T13:10:39Z,2021-12-31T23:59:00Z,Active,FS,Eating & Drinking,HE_Pass,2021-03-22T15:07:09Z,Controlling Pests (Pf),Pass,Grease containers outside are heavily soiled - rodent activity visible - conract pest control company as discussed,658 E Broadway,South Boston,MA,2127
THE PURPLE SHELL,,The Purple Shell,Att: Accounts Payable,398702,2020-02-24T15:44:18Z,2021-12-31T23:59:00Z,Active,FS,Eating & Drinking,HE_Pass,2021-03-12T14:16:03Z,(A)-(P) Person-In-Charge-Duties (Pf),Pass,Sushi [ PIC ] is not filling out the HACCP log book properly  address as discussed during inspection,11 W Broadway,South Boston,MA,2127
THE PURPLE SHELL,,The Purple Shell,Att: Accounts Payable,398702,2020-02-24T15:44:18Z,2021-12-31T23:59:00Z,Active,FS,Eating & Drinking,HE_Pass,2021-03-12T14:16:03Z,Ice (P),Pass,Clean interior lid of ice machine as well as the perimeter of the exterior sections wherte there is a visible accumulation of dust and soils,11 W Broadway,South Boston,MA,2127
THE PURPLE SHELL,,The Purple Shell,Att: Accounts Payable,398702,2020-02-24T15:44:18Z,2021-12-31T23:59:00Z,Active,FS,Eating & Drinking,HE_Pass,2021-03-12T14:16:03Z,Packaged and Unpackaged Food-Separation  Packaging  and Segregation  (C),Pass,WALK-IN: Ensure all raw chicken is stored underneath raw beef and pork to reduce potential contamination - keep all foods elevated off the floors during storage,11 W Broadway,South Boston,MA,2127
THE PURPLE SHELL,,The Purple Shell,Att: Accounts Payable,398702,2020-02-24T15:44:18Z,2021-12-31T23:59:00Z,Active,FS,Eating & Drinking,HE_Pass,2021-03-12T14:16:03Z,Wiping Cloths  Use Limitation (C),Pass,Set up as discussed,11 W Broadway,South Boston,MA,2127
THE PURPLE SHELL,,The Purple Shell,Att: Accounts Payable,398702,2020-02-24T15:44:18Z,2021-12-31T23:59:00Z,Active,FS,Eating & Drinking,HE_Pass,2021-03-12T14:16:03Z,Food Labels (C),Pass,Clearly label to identify all clear plastic spray bottles scattered throughout the facility as well as all bulk food containers,11 W Broadway,South Boston,MA,2127
THE PURPLE SHELL,,The Purple Shell,Att: Accounts Payable,398702,2020-02-24T15:44:18Z,2021-12-31T23:59:00Z,Active,FS,Eating & Drinking,HE_Pass,2021-03-12T14:16:03Z,Sponges Use Limitation (C),Pass,Discontinue use of absorbant sponges used for food contact surfaces,11 W Broadway,South Boston,MA,2127
THE PURPLE SHELL,,The Purple Shell,Att: Accounts Payable,398702,2020-02-24T15:44:18Z,2021-12-31T23:59:00Z,Active,FS,Eating & Drinking,HE_Pass,2021-03-12T14:16:03Z,Nonfood-Contact Surfaces (C),Pass,Remove all soiled and saturated cardboard being used to line shelving units an other pieces of equipment                                                        Remove all aluminum foil wrapped around plumbing pipes and other areas of  equipment such as lower shelves on prep tables and so forth,11 W Broadway,South Boston,MA,2127
THE PURPLE SHELL,,The Purple Shell,Att: Accounts Payable,398702,2020-02-24T15:44:18Z,2021-12-31T23:59:00Z,Active,FS,Eating & Drinking,HE_Pass,2021-03-12T14:16:03Z,CIP Equipment (C),Pass,Clean inside and outside of all refrigeration and freezer units from food spills  stains and soils                                                                              Clean all in place cooking equipment   shelving racks froma collection of visible food spills,11 W Broadway,South Boston,MA,2127
THE PURPLE SHELL,,The Purple Shell,Att: Accounts Payable,398702,2020-02-24T15:44:18Z,2021-12-31T23:59:00Z,Active,FS,Eating & Drinking,HE_Pass,2021-03-12T14:16:03Z,Nonfood-Contact Surfaces (C),Pass,No splash guards on hand sink located beside the sanitize basin of the three bay sink and a shelving unit containing clean utensils  address,11 W Broadway,South Boston,MA,2127
THE PURPLE SHELL,,The Purple Shell,Att: Accounts Payable,398702,2020-02-24T15:44:18Z,2021-12-31T23:59:00Z,Active,FS,Eating & Drinking,HE_Pass,2021-03-12T14:16:03Z,Temperature Measuring Devices-Functionality  (C),Pass,Ensure all cold holding equipment has properly operating temperature measuring devices that are clearly and visually able to be read to determine interior temperatures,11 W Broadway,South Boston,MA,2127
THE PURPLE SHELL,,The Purple Shell,Att: Accounts Payable,398702,2020-02-24T15:44:18Z,2021-12-31T23:59:00Z,Active,FS,Eating & Drinking,HE_Pass,2021-03-12T14:16:03Z,Cutting Surfaces (C),Pass,Cover meat slicer on top of the counter when not in use to reduce potential contamination from food spills,11 W Broadway,South Boston,MA,2127
THE PURPLE SHELL,,The Purple Shell,Att: Accounts Payable,398702,2020-02-24T15:44:18Z,2021-12-31T23:59:00Z,Active,FS,Eating & Drinking,HE_Pass,2021-03-12T14:16:03Z,Storage of Soiled Linens (C),Pass,Relocate soiled lines that are overflowing in the current containers being used and store away from food service locations,11 W Broadway,South Boston,MA,2127
THE PURPLE SHELL,,The Purple Shell,Att: Accounts Payable,398702,2020-02-24T15:44:18Z,2021-12-31T23:59:00Z,Active,FS,Eating & Drinking,HE_Pass,2021-03-12T14:16:03Z,Using a Handwashing Sink-Operation and Maintenance (Pf),Pass,Several hand sinks blocked with utensils and plastic TO GO containers - keep clear and clean so staff can wash hands properly without restrictions,11 W Broadway,South Boston,MA,2127
THE PURPLE SHELL,,The Purple Shell,Att: Accounts Payable,398702,2020-02-24T15:44:18Z,2021-12-31T23:59:00Z,Active,FS,Eating & Drinking,HE_Pass,2021-03-12T14:16:03Z,Other Liquid Wastes and Rainwater (C),Pass,Clean visibly soiled grese drum in the corner of the kitchen and keep covered as discussed when not needed or in use,11 W Broadway,South Boston,MA,2127
THE PURPLE SHELL,,The Purple Shell,Att: Accounts Payable,398702,2020-02-24T15:44:18Z,2021-12-31T23:59:00Z,Active,FS,Eating & Drinking,HE_Pass,2021-03-12T14:16:03Z,Floors  Walls and Ceilings-Cleanability (C),Pass,Clean the floors throughout the kitchen as well as the walls behind the cooking line and other areas where needed from visible food spills,11 W Broadway,South Boston,MA,2127
THE PURPLE SHELL,,The Purple Shell,Att: Accounts Payable,398702,2020-02-24T15:44:18Z,2021-12-31T23:59:00Z,Active,FS,Eating & Drinking,HE_Pass,2021-03-12T14:16:03Z,Wall and Ceiling Coverings and Coatings (C),Pass,Small hole in the ceiling above the meat slicer  repair,11 W Broadway,South Boston,MA,2127
THE PURPLE SHELL,,The Purple Shell,Att: Accounts Payable,398702,2020-02-24T15:44:18Z,2021-12-31T23:59:00Z,Active,FS,Eating & Drinking,HE_Pass,2021-03-12T14:16:03Z,Walls and Ceilings  Attachments (C),Pass,Replace compromised door sweep on the rear delivery door leading to the kitchen,11 W Broadway,South Boston,MA,2127
THE PURPLE SHELL,,The Purple Shell,Att: Accounts Payable,398702,2020-02-24T15:44:18Z,2021-12-31T23:59:00Z,Active,FS,Eating & Drinking,HE_Pass,2021-03-12T14:16:03Z,Outer Openings  Protected (C),Pass,Check all door sweeps where sunlight enters the facility,11 W Broadway,South Boston,MA,2127
THE PURPLE SHELL,,The Purple Shell,Att: Accounts Payable,398702,2020-02-24T15:44:18Z,2021-12-31T23:59:00Z,Active,FS,Eating & Drinking,HE_Pass,2021-03-12T14:16:03Z,Handwashing Signage  (C),Pass,Clearly identify all hand sinks scattered throughout the facility and keep the perimeter of the sinks clutter free and easily accessible,11 W Broadway,South Boston,MA,2127
THE PURPLE SHELL,,The Purple Shell,Att: Accounts Payable,398702,2020-02-24T15:44:18Z,2021-12-31T23:59:00Z,Active,FS,Eating & Drinking,HE_Pass,2021-03-12T14:16:03Z,Using Dressing Rooms and Lockers (C),Pass,Clean and tidy up the area designated for lockers  ensure all personal coats and belongings are not stored in with foods and food service locations or hanging where they are not supposed to in the kitchen,11 W Broadway,South Boston,MA,2127
THE PURPLE SHELL,,The Purple Shell,Att: Accounts Payable,398702,2020-02-24T15:44:18Z,2021-12-31T23:59:00Z,Active,FS,Eating & Drinking,HE_Pass,2021-03-12T14:16:03Z,Conditions of Use (C),Pass,Discontinue storing Windex and other cleaning solutions stored too close to food saervice locations and keep segragated as discussed,11 W Broadway,South Boston,MA,2127
THE PURPLE SHELL,,The Purple Shell,Att: Accounts Payable,398702,2020-02-24T15:44:18Z,2021-12-31T23:59:00Z,Active,FS,Eating & Drinking,HE_Pass,2021-03-12T14:16:03Z,Conformance with Approved Procedures (P),Pass,HACCP log books are not being properly and completely filled out daily  moving forward temperatures  PH   initials  dates and so forth shall be filled out daily as discussed during inspection - Acidification was o.k for the rice,11 W Broadway,South Boston,MA,2127
TOM ENGLISH COTTAGE,English Thomas A Jr,English Jr,Thomas A,18495,2011-12-08T10:40:35Z,2021-12-31T23:59:00Z,Active,FS,Eating & Drinking,HE_Pass,2021-02-25T15:38:34Z,Compliance with Food Law  (Pf),Pass,Discontinue purchasing foods from retail food establishments [ Market Basket - Stop & Shop } and only purchase foods from rep[utable food suppliers as discussed during inspection,112   Emerson ST,South Boston,MA,2127
TOM ENGLISH COTTAGE,English Thomas A Jr,English Jr,Thomas A,18495,2011-12-08T10:40:35Z,2021-12-31T23:59:00Z,Active,FS,Eating & Drinking,HE_Pass,2021-02-25T15:38:34Z,Wiping Cloths  Use Limitation (C),Pass,Set up as discussed during inspection,112   Emerson ST,South Boston,MA,2127
TOM ENGLISH COTTAGE,English Thomas A Jr,English Jr,Thomas A,18495,2011-12-08T10:40:35Z,2021-12-31T23:59:00Z,Active,FS,Eating & Drinking,HE_Pass,2021-02-25T15:38:34Z,Ventilation Hood Systems  Filters (C),Pass,Clean filters where needed in the hood,112   Emerson ST,South Boston,MA,2127
TOM ENGLISH COTTAGE,English Thomas A Jr,English Jr,Thomas A,18495,2011-12-08T10:40:35Z,2021-12-31T23:59:00Z,Active,FS,Eating & Drinking,HE_Pass,2021-02-25T15:38:34Z,Food Temperature Measuring Devices (Pf),Pass,Ensure there is a properly operating food thermometer oin site,112   Emerson ST,South Boston,MA,2127
TOM ENGLISH COTTAGE,English Thomas A Jr,English Jr,Thomas A,18495,2011-12-08T10:40:35Z,2021-12-31T23:59:00Z,Active,FS,Eating & Drinking,HE_Pass,2021-02-25T15:38:34Z,Floors  Walls and Ceilings-Cleanability (C),Pass,Clean floors and walls where needed from all visible food spills  stains anmd soils,112   Emerson ST,South Boston,MA,2127
TOM ENGLISH COTTAGE,English Thomas A Jr,English Jr,Thomas A,18495,2011-12-08T10:40:35Z,2021-12-31T23:59:00Z,Active,FS,Eating & Drinking,HE_Pass,2021-02-25T15:38:34Z,Controlling Pests (C),Pass,Some rodent droppings outside by the delivery door and stairwell  address as discussed,112   Emerson ST,South Boston,MA,2127
TOM ENGLISH COTTAGE,English Thomas A Jr,English Jr,Thomas A,18495,2011-12-08T10:40:35Z,2021-12-31T23:59:00Z,Active,FS,Eating & Drinking,HE_Pass,2021-02-25T15:38:34Z,Maintaining Premises  Unnecessary Items and Litter (C),Pass,Clean top remove all loose trash  debris and broken equipment in the basement,112   Emerson ST,South Boston,MA,2127
TONY C'S SPORTS BAR & GRILL,,Rebel Restaurants Inc.,,68640,2012-02-14T14:30:39Z,2021-12-31T23:59:00Z,Active,FS,Eating & Drinking,HE_Filed,2021-04-01T14:32:45Z,Dispensing Equipment  Protection of Equipment and Food (C),Fail,Place ice scoop with a handle in a clean container segragated from food service to reduce potential contamination,250  Northern AVE,South Boston,MA,2210
TONY C'S SPORTS BAR & GRILL,,Rebel Restaurants Inc.,,68640,2012-02-14T14:30:39Z,2021-12-31T23:59:00Z,Active,FS,Eating & Drinking,HE_Filed,2021-04-01T14:32:45Z,Ventilation Hood Systems  Adequacy (C),Fail,Remove older stickers on the hood that are still partially glued to the sides to reduce any potential confusion and maintain clean as discussed-,250  Northern AVE,South Boston,MA,2210
TONY C'S SPORTS BAR & GRILL,,Rebel Restaurants Inc.,,68640,2012-02-14T14:30:39Z,2021-12-31T23:59:00Z,Active,FS,Eating & Drinking,HE_Filed,2021-04-01T14:32:45Z,Single-Service and Single-Use Articles-Use Limitations (C),Fail,Plastic white food containers being reused multiple times have become compromised with cracks and visibly discolored  remove as discussed - these are not made to be used over and over as the plastic breaks down and makes it much harder to clean,250  Northern AVE,South Boston,MA,2210
TOUCHIE'S SHAMROCK PUB,,Touchtone Enterprises,,24118,2011-12-07T12:48:25Z,2021-12-31T23:59:00Z,Active,FS,Eating & Drinking,HE_Filed,2021-02-26T14:36:46Z,Floors  Walls and Ceilings-Cleanability (C),Fail,Clean floors behind the bar from all bottle caps and loose debris,501 E Eighth ST,South Boston,MA,2127
TOUCHIE'S SHAMROCK PUB,,Touchtone Enterprises,,24118,2011-12-07T12:48:25Z,2021-12-31T23:59:00Z,Active,FS,Eating & Drinking,HE_Filed,2021-02-26T14:36:46Z,Handwashing Signage  (C),Fail,Clearly identify all hand sinks clearly throughout the facility and keep clear - do not keep anything on the sides or edges to obstruct staff from washing hands,501 E Eighth ST,South Boston,MA,2127
WALGREENS NO. 17169,Maxi Drugs  Inc. Brooks Lic. Dept.,Walgreen Co.,Att: Accounts Payable,362268,2018-05-14T15:30:38Z,2021-12-31T23:59:00Z,Active,RF,Retail Food,HE_Filed,2021-01-25T12:00:14Z,Conveniently Located (C),Fail,Visiblely soiled toilets in employee restrooms. Maintain clean.,710 E Broadway,South Boston,MA,2127
WALGREENS NO. 17169,Maxi Drugs  Inc. Brooks Lic. Dept.,Walgreen Co.,Att: Accounts Payable,362268,2018-05-14T15:30:38Z,2021-12-31T23:59:00Z,Active,RF,Retail Food,HE_Filed,2021-01-25T12:00:14Z,,Fail,8-304.11 (A) Post current permit in a location in the establishment that is conspicuous to consumers.,710 E Broadway,South Boston,MA,2127
WAVE HEALTH & FITNESS,Seaport Hotel Attn: Micha,Seaport Companies,,23075,2012-01-05T10:58:05Z,2021-12-31T23:59:00Z,Active,RF,Retail Food,HE_NotReq,2021-04-21T15:11:17Z,,Pass,,1   SEAPORT LA,SOUTH BOSTON,MA,2210
WEST SEVENTH MINI MARKET,Chaletzky Stephen E Ts,Lucky Chino Corp.,,80504,2012-08-15T09:49:51Z,2021-12-31T23:59:00Z,Active,RF,Retail Food,HE_Pass,2021-03-08T14:12:32Z,(A)-(P) Person-In-Charge-Duties (Pf),Pass,PIC is not monitoring expiraion dates of retail food products. Is not purchasing products from approved  licensed whole sale supplier. PIC was unable to explain how to set up three bay sink or how to wash and sanitize. PIC storing personal food items in retail refrigerators and freezers.,51 W Seventh ST,South Boston,MA,2127
WEST SEVENTH MINI MARKET,Chaletzky Stephen E Ts,Lucky Chino Corp.,,80504,2012-08-15T09:49:51Z,2021-12-31T23:59:00Z,Active,RF,Retail Food,HE_Pass,2021-03-08T14:12:32Z,Compliance with Food Law  (Pf),Pass,Multiple items on retail shelves are house-label from local grocery store: jelly  diapers  soy sauce  canned pees  soap  trash bags  dog food  bread crumbs  corn starch  baking soda  etc.,51 W Seventh ST,South Boston,MA,2127
WEST SEVENTH MINI MARKET,Chaletzky Stephen E Ts,Lucky Chino Corp.,,80504,2012-08-15T09:49:51Z,2021-12-31T23:59:00Z,Active,RF,Retail Food,HE_Pass,2021-03-08T14:12:32Z,Packaged and Unpackaged Food-Separation  Packaging  and Segregation  (C),Pass,Expired items on retail shelves: hot sauce  bbq sauce  canned soup  baby food  macaroni and cheese  funyuns and chips. Damaged bag of rice on shelf- damaged packages contaminate food. Keep expired food separate from retail shelf.,51 W Seventh ST,South Boston,MA,2127
WEST SEVENTH MINI MARKET,Chaletzky Stephen E Ts,Lucky Chino Corp.,,80504,2012-08-15T09:49:51Z,2021-12-31T23:59:00Z,Active,RF,Retail Food,HE_Pass,2021-03-08T14:12:32Z,Miscellaneous Sources of Contamination (C),Pass,Personal food items stored in retail freezers and retail refrigerator. Personal foods that are unlabeled  opened  and stored in home-style containers must be stored away from customer self-service areas.,51 W Seventh ST,South Boston,MA,2127
WEST SEVENTH MINI MARKET,Chaletzky Stephen E Ts,Lucky Chino Corp.,,80504,2012-08-15T09:49:51Z,2021-12-31T23:59:00Z,Active,RF,Retail Food,HE_Pass,2021-03-08T14:12:32Z,Food Labels (Pf),Pass,Multiple items for sale on retail shelf without labels: butter sticks  fruit cups  hot dogs  bacon  poptarts  crackers  cookies  pastry  and popcorn. All food items for sale must be properly labelled according to standards of identification.,51 W Seventh ST,South Boston,MA,2127
WEST SEVENTH MINI MARKET,Chaletzky Stephen E Ts,Lucky Chino Corp.,,80504,2012-08-15T09:49:51Z,2021-12-31T23:59:00Z,Active,RF,Retail Food,HE_Pass,2021-03-08T14:12:32Z,Discarding or Reconditioning Unsafe  Adulterated  or Contaminated Food (P),Pass,Expired items for sale in retail refrigerator: hot dogs,51 W Seventh ST,South Boston,MA,2127
WEST SEVENTH MINI MARKET,Chaletzky Stephen E Ts,Lucky Chino Corp.,,80504,2012-08-15T09:49:51Z,2021-12-31T23:59:00Z,Active,RF,Retail Food,HE_Pass,2021-03-08T14:12:32Z,Manual and Mechanical Warewashing Equipment  Chemical Sanitization-Temperature  pH  Concentration and Hardness (P),Pass,No sanitizer or test kit available for three bay sink. Discontinue serving ice cream and  italia ice until three bay sink is properly set up and supplied with chemical sanitizer.,51 W Seventh ST,South Boston,MA,2127
WEST SEVENTH MINI MARKET,Chaletzky Stephen E Ts,Lucky Chino Corp.,,80504,2012-08-15T09:49:51Z,2021-12-31T23:59:00Z,Active,RF,Retail Food,HE_Pass,2021-03-08T14:12:32Z,(A) Equipment  Food-Contact Surfaces  Nonfood-Contact Surfaces  and Utensils (Pf),Pass,Retail shelving and canned goods visibly dusty and soiled  sticky to touch. Maintain packaged food  shelving  and premises clean to sight and touch.,51 W Seventh ST,South Boston,MA,2127
WEST SEVENTH MINI MARKET,Chaletzky Stephen E Ts,Lucky Chino Corp.,,80504,2012-08-15T09:49:51Z,2021-12-31T23:59:00Z,Active,RF,Retail Food,HE_Pass,2021-03-08T14:12:32Z,Using a Handwashing Sink-Operation and Maintenance (Pf),Pass,Handwash sink blocked by a bucket of utensils. Remove and keep sink clear for hand washing.,51 W Seventh ST,South Boston,MA,2127
WEST SEVENTH MINI MARKET,Chaletzky Stephen E Ts,Lucky Chino Corp.,,80504,2012-08-15T09:49:51Z,2021-12-31T23:59:00Z,Active,RF,Retail Food,HE_Pass,2021-03-08T14:12:32Z,Handwashing Cleanser  Availability (Pf),Pass,No soap at hand sink. Cannot wash and sanitize utensils without clean hands.,51 W Seventh ST,South Boston,MA,2127
WEST SEVENTH MINI MARKET,Chaletzky Stephen E Ts,Lucky Chino Corp.,,80504,2012-08-15T09:49:51Z,2021-12-31T23:59:00Z,Active,RF,Retail Food,HE_Pass,2021-03-08T14:12:32Z,Hand Drying Provision (Pf),Pass,No towels or hand dryer.,51 W Seventh ST,South Boston,MA,2127
WORDEN HALL,,Welsh,Dylan,138566,2015-08-19T08:58:47Z,2021-12-31T23:59:00Z,Active,FS,Eating & Drinking,HE_Pass,2021-04-14T15:23:16Z,,Pass,,22 W Broadway,South Boston,MA,2127
